{"type":"FeatureCollection","features":[{"type":"Feature","properties":{"id":"sambas","name":"Sambas","type":"kecamatan"},"geometry":{"type":"Polygon","coordinates":[[[109.34541920000004,1.413814200000047],[109.30333730000007,1.402248900000075],[109.28617170000007,1.402364500000033],[109.278283,1.408558200000073],[109.26469990000004,1.381997200000058],[109.23854880000005,1.392221300000074],[109.19607860000008,1.337241],[109.21275270000007,1.320531800000026],[109.24993380000006,1.34178380000003],[109.26164170000004,1.329734],[109.24632430000008,1.305767100000025],[109.252099,1.293966],[109.33680620000007,1.237201],[109.36806220000005,1.260643200000061],[109.37229620000005,1.278082500000039],[109.39281970000008,1.289658300000042],[109.39532020000007,1.297722200000067],[109.38938510000008,1.336876400000051],[109.37049960000007,1.382931],[109.36463690000005,1.393889500000057],[109.35029010000005,1.39880770000002],[109.34541920000004,1.413814200000047]]]}},{"type":"Feature","properties":{"id":"teluk-keramat","name":"Teluk Keramat","type":"kecamatan"},"geometry":{"type":"Polygon","coordinates":[[[109.23870520000008,1.607137400000056],[109.21357440000008,1.604258200000061],[109.21471020000007,1.564643600000068],[109.18613520000008,1.564723900000047],[109.19666430000007,1.544644100000028],[109.21071570000004,1.541655800000058],[109.20977050000005,1.536277900000073],[109.22422580000006,1.531175200000064],[109.221386,1.525206500000024],[109.22929390000007,1.520761],[109.18879220000008,1.509463700000026],[109.17001520000008,1.510563700000034],[109.13794220000005,1.489850100000069],[109.08708890000008,1.479771200000073],[109.09357010000008,1.467861],[109.10647160000008,1.462472200000036],[109.10390790000008,1.445675],[109.11802090000003,1.419402],[109.12180310000008,1.381002],[109.13564380000008,1.354032200000063],[109.13910550000008,1.330933400000049],[109.16783470000007,1.296943700000043],[109.23110630000008,1.386755100000073],[109.24262290000007,1.393005500000072],[109.25954080000008,1.382037900000057],[109.26744330000008,1.384050200000047],[109.278283,1.408558200000073],[109.25629410000005,1.423638700000026],[109.25603170000005,1.431467700000042],[109.26625080000008,1.447553300000038],[109.29893640000006,1.465330600000073],[109.30408130000006,1.498532800000021],[109.28493660000004,1.541929700000026],[109.26990460000007,1.553484500000025],[109.26242610000008,1.574785900000052],[109.23870520000008,1.607137400000056]]]}},{"type":"Feature","properties":{"id":"sebawi","name":"Sebawi","type":"kecamatan"},"geometry":{"type":"Polygon","coordinates":[[[109.19607860000008,1.337241],[109.15043110000005,1.262420100000043],[109.23536730000006,1.221013400000061],[109.24226980000009,1.200958900000046],[109.25402050000008,1.190022],[109.26627110000004,1.214139],[109.30384470000007,1.212886400000059],[109.33680620000007,1.237201],[109.252099,1.293966],[109.24632430000008,1.305767100000025],[109.26164170000004,1.329734],[109.24993380000006,1.34178380000003],[109.21275270000007,1.320531800000026],[109.19607860000008,1.337241]]]}},{"type":"Feature","properties":{"id":"sejangkung","name":"Sejangkung","type":"kecamatan"},"geometry":{"type":"Polygon","coordinates":[[[109.29893640000006,1.465330600000073],[109.26625080000008,1.447553300000038],[109.25629410000005,1.423638700000026],[109.288851,1.402024100000062],[109.398061,1.417375100000072],[109.44348550000007,1.414000700000031],[109.45814690000009,1.407218],[109.481327,1.350111],[109.512904,1.332722100000069],[109.51851150000005,1.306672400000025],[109.54847750000005,1.273986600000057],[109.555568,1.248561300000063],[109.57382420000005,1.244103600000074],[109.59784690000004,1.253739300000063],[109.60470660000004,1.250273200000038],[109.61002350000007,1.260386900000071],[109.60720830000008,1.286038],[109.62643030000004,1.331900900000051],[109.610983,1.367821200000037],[109.57560120000005,1.376670700000034],[109.57964050000004,1.383737200000041],[109.60940460000006,1.388810100000057],[109.60138080000007,1.404733700000065],[109.60873010000006,1.430981],[109.58020980000003,1.449017900000058],[109.56949740000005,1.467314800000054],[109.58573150000007,1.476302800000042],[109.58847050000008,1.485512300000039],[109.60699430000005,1.491279100000042],[109.60034630000007,1.514294600000028],[109.60651870000004,1.519823300000041],[109.60696290000004,1.540311200000076],[109.63943,1.562661700000035],[109.640457,1.570009700000071],[109.56666650000005,1.579707600000063],[109.56462810000005,1.554108],[109.54659540000006,1.526271100000031],[109.50487240000007,1.52022050000005],[109.48966280000008,1.52565850000002],[109.46283590000007,1.523607800000036],[109.38648690000008,1.495485700000074],[109.36591920000006,1.474280800000031],[109.322925,1.462419300000022],[109.29893640000006,1.465330600000073]]]}},{"type":"Feature","properties":{"id":"sajad","name":"Sajad","type":"kecamatan"},"geometry":{"type":"Polygon","coordinates":[[[109.47790150000009,1.363036900000054],[109.46105050000006,1.405046300000038],[109.44348550000007,1.414000700000031],[109.34541920000004,1.413814200000047],[109.35029010000005,1.39880770000002],[109.36574160000004,1.39285330000007],[109.38936740000008,1.336936100000059],[109.39262440000005,1.289537400000029],[109.47790150000009,1.363036900000054]]]}},{"type":"Feature","properties":{"id":"jawai","name":"Jawai","type":"kecamatan"},"geometry":{"type":"Polygon","coordinates":[[[109.13910550000008,1.330933400000049],[109.13564380000008,1.354032200000063],[109.12180310000008,1.381002],[109.11802090000003,1.419402],[109.10390790000008,1.445675],[109.10647160000008,1.462472200000036],[109.09239350000007,1.469056900000055],[109.07270960000005,1.515447],[109.05942530000004,1.524751800000047],[109.03723560000009,1.462553100000036],[109.04132910000004,1.345105200000035],[109.01145140000006,1.297074],[109.03297540000005,1.281952400000023],[109.04796950000008,1.297331700000029],[109.06386770000006,1.294322900000054],[109.10290150000009,1.327283600000044],[109.13910550000008,1.330933400000049]]]}},{"type":"Feature","properties":{"id":"jawai-selatan","name":"Jawai Selatan","type":"kecamatan"},"geometry":{"type":"MultiPolygon","coordinates":[[[[109.01145140000006,1.297074],[108.98966040000005,1.275861600000042],[108.98438590000006,1.25],[108.963732,1.21777220000007],[108.95961070000004,1.205544300000042],[108.96506570000008,1.190323100000057],[108.987913,1.20796850000005],[109.06671340000008,1.203967500000033],[109.09732,1.223355],[109.06293220000003,1.279430900000023],[109.06344060000004,1.294733500000063],[109.04796950000008,1.297331700000029],[109.03297540000005,1.281952400000023],[109.01145140000006,1.297074]]],[[[108.97068020000006,1.189863200000048],[108.97112740000006,1.182297600000027],[108.97068020000006,1.189863200000048]]]]}},{"type":"Feature","properties":{"id":"tebas","name":"Tebas","type":"kecamatan"},"geometry":{"type":"Polygon","coordinates":[[[109.08174010000005,1.213774100000023],[109.10148120000008,1.169237900000041],[109.11892870000008,1.098664600000063],[109.13692760000004,1.108604200000059],[109.14517820000009,1.123703700000021],[109.16078910000004,1.117868100000067],[109.16074880000008,1.083533],[109.18166690000004,1.07404450000007],[109.18882530000008,1.050566500000059],[109.18592080000008,1.032775700000059],[109.21229360000007,1.006200700000022],[109.23142380000007,1.002902400000039],[109.23458410000006,1.016863800000067],[109.24999340000005,1.034682600000053],[109.27186170000004,1.041928600000062],[109.38879990000004,1.044222500000046],[109.40760090000003,1.05254240000005],[109.37596140000005,1.068864100000042],[109.364984,1.140479900000059],[109.32039210000005,1.177418600000067],[109.30842860000007,1.178577],[109.27924410000008,1.16689290000005],[109.25637170000005,1.176337100000069],[109.23536730000006,1.221013400000061],[109.21974470000004,1.229735600000026],[109.15043110000005,1.262420100000043],[109.14152350000006,1.245273800000064],[109.11611730000004,1.236037500000066],[109.09756830000003,1.260766100000069],[109.07853120000004,1.253017700000044],[109.09732,1.223355],[109.08174010000005,1.213774100000023]]]}},{"type":"Feature","properties":{"id":"tekarang","name":"Tekarang","type":"kecamatan"},"geometry":{"type":"Polygon","coordinates":[[[109.06386770000006,1.294322900000054],[109.06166310000003,1.282764300000053],[109.07853120000004,1.253017700000044],[109.09756830000003,1.260766100000069],[109.11611730000004,1.236037500000066],[109.144673,1.248515800000064],[109.16783470000007,1.296943700000043],[109.13930640000007,1.330966300000057],[109.12241080000007,1.331758400000069],[109.10070010000004,1.325963900000033],[109.06386770000006,1.294322900000054]]]}},{"type":"Feature","properties":{"id":"pemangkat","name":"Pemangkat","type":"kecamatan"},"geometry":{"type":"Polygon","coordinates":[[[108.96506570000008,1.190323100000057],[108.97112120000008,1.176463600000034],[108.95837060000008,1.166657300000054],[108.947417,1.164764200000036],[108.92721660000007,1.175649100000044],[108.90436330000006,1.171340300000054],[108.90309770000005,1.162466700000039],[108.92870850000008,1.111504900000057],[108.935155,1.120728100000065],[108.94763730000005,1.105122],[108.950231,1.113615700000025],[108.96622260000004,1.119265200000029],[108.96868950000004,1.12976210000005],[108.979908,1.134137600000031],[108.99260230000004,1.136373300000059],[108.99763530000007,1.125448100000028],[109.00321270000006,1.135069300000055],[109.01674160000005,1.136195],[109.02403290000007,1.144631900000036],[109.03661960000005,1.136907],[109.03223450000007,1.205009800000028],[108.987913,1.20796850000005],[108.96506570000008,1.190323100000057]],[[108.97068020000006,1.189863200000048],[108.97112740000006,1.182297600000027],[108.97068020000006,1.189863200000048]]]}},{"type":"Feature","properties":{"id":"semparuk","name":"Semparuk","type":"kecamatan"},"geometry":{"type":"Polygon","coordinates":[[[109.03223450000007,1.205009800000028],[109.03562320000009,1.143668800000057],[109.04033470000007,1.140078200000062],[109.04056860000009,1.145643500000062],[109.06710520000007,1.108551900000066],[109.07680680000004,1.105368300000066],[109.08122620000006,1.092447400000026],[109.10093630000006,1.09132210000007],[109.11892870000008,1.098664600000063],[109.10148120000008,1.169237900000041],[109.08174010000005,1.213774100000023],[109.06671340000008,1.203967500000033],[109.03223450000007,1.205009800000028]]]}},{"type":"Feature","properties":{"id":"salatiga","name":"Salatiga","type":"kecamatan"},"geometry":{"type":"Polygon","coordinates":[[[108.92870850000008,1.111504900000057],[108.93280950000008,1.096218800000031],[108.95566380000008,1.086544100000026],[109.00014170000009,1.089152300000023],[109.00795670000008,1.101208400000075],[109.02002980000009,1.10544630000004],[109.08165810000008,1.094875900000034],[109.04056860000009,1.145643500000062],[109.04033470000007,1.140078200000062],[109.03407830000003,1.142648200000053],[109.035643,1.135969600000067],[109.02403290000007,1.144631900000036],[109.01674160000005,1.136195],[109.004019,1.135569500000031],[108.99943440000004,1.125699200000042],[108.99198170000005,1.136560300000042],[108.96868950000004,1.12976210000005],[108.96681270000005,1.11982560000007],[108.95057050000008,1.113894100000039],[108.94863220000008,1.10539540000002],[108.935155,1.120728100000065],[108.92870850000008,1.111504900000057]]]}},{"type":"Feature","properties":{"id":"subah","name":"Subah","type":"kecamatan"},"geometry":{"type":"Polygon","coordinates":[[[109.51588230000004,1.119941700000027],[109.52078250000005,1.162668200000041],[109.53735410000007,1.19372530000004],[109.551855,1.200337300000058],[109.588975,1.201994400000046],[109.59991210000004,1.216908700000033],[109.60470660000004,1.250273200000038],[109.59784690000004,1.253739300000063],[109.57382420000005,1.244103600000074],[109.555568,1.248561300000063],[109.54847750000005,1.273986600000057],[109.51851150000005,1.306672400000025],[109.512904,1.332722100000069],[109.48478850000004,1.34654450000005],[109.47790150000009,1.363036900000054],[109.41029440000005,1.29975950000005],[109.37229620000005,1.278082500000039],[109.36806220000005,1.260643200000061],[109.30384470000007,1.212886400000059],[109.26627110000004,1.214139],[109.25389870000004,1.189959300000055],[109.25637170000005,1.176337100000069],[109.27924410000008,1.16689290000005],[109.30842860000007,1.178577],[109.33692670000005,1.166168600000049],[109.364984,1.140479900000059],[109.37596140000005,1.068864100000042],[109.40740070000004,1.052595300000064],[109.42172540000007,1.051611900000069],[109.46921210000005,1.020333600000072],[109.48312380000004,1.063474400000075],[109.51588230000004,1.119941700000027]]]}},{"type":"Feature","properties":{"id":"selakau","name":"Selakau","type":"kecamatan"},"geometry":{"type":"Polygon","coordinates":[[[108.94130580000007,1.090227500000026],[108.97233740000007,1.030595100000028],[108.97870990000007,0.989167900000041],[109.06274510000009,0.989570900000047],[109.08468150000004,1.000409300000058],[109.03856110000004,1.015866700000061],[109.04609540000007,1.065872300000024],[109.04233480000005,1.071060300000056],[109.02965310000008,1.063182300000051],[109.02329820000006,1.067830500000071],[109.05356820000009,1.100400800000045],[109.01717030000009,1.105202],[108.99771050000004,1.088506400000028],[108.94130580000007,1.090227500000026]]]}},{"type":"Feature","properties":{"id":"selakau-timur","name":"Selakau Timur","type":"kecamatan"},"geometry":{"type":"Polygon","coordinates":[[[109.23142380000007,1.002902400000039],[109.21132940000007,1.006739200000027],[109.18637640000009,1.031940500000076],[109.18384570000006,1.069538600000044],[109.17717270000009,1.078076300000021],[109.16203860000007,1.081137800000022],[109.15712460000009,1.097083700000042],[109.16146460000004,1.116666900000041],[109.14919160000005,1.124495700000068],[109.128697,1.10160030000003],[109.10252340000005,1.091608400000041],[109.05356820000009,1.100400800000045],[109.02329820000006,1.067830500000071],[109.02965310000008,1.063182300000051],[109.04233480000005,1.071060300000056],[109.04609540000007,1.065872300000024],[109.03856110000004,1.015866700000061],[109.05640580000005,1.012563500000056],[109.06030840000005,1.004418500000043],[109.083364,1.001875400000074],[109.08857780000005,0.990916700000071],[109.09805370000004,0.993304800000033],[109.09631840000009,1.004910300000063],[109.107978,1.005018800000073],[109.10830340000007,1.011960300000055],[109.120885,1.011146900000028],[109.13025110000007,1.018359600000053],[109.13516090000007,1.011458100000027],[109.14697020000006,1.010333400000036],[109.149784,0.980026500000065],[109.16267830000004,0.97217420000004],[109.17369830000007,0.979399300000068],[109.17287610000005,0.966505300000051],[109.187392,0.96401510000004],[109.20375250000006,0.972164700000064],[109.21329040000006,0.987797400000034],[109.22991010000004,0.988810500000056],[109.23142380000007,1.002902400000039]]]}},{"type":"Feature","properties":{"id":"galing","name":"Galing","type":"kecamatan"},"geometry":{"type":"Polygon","coordinates":[[[109.46084720000005,1.734519500000033],[109.40490320000004,1.741928600000051],[109.35324550000007,1.698210200000062],[109.35317730000008,1.681393900000046],[109.33284760000004,1.653882700000054],[109.23526110000006,1.606284100000039],[109.26123140000004,1.576814200000058],[109.26990460000007,1.553484500000025],[109.28628990000004,1.539383600000065],[109.30443430000008,1.497234100000071],[109.29898580000008,1.46512],[109.322925,1.462419300000022],[109.36591920000006,1.474280800000031],[109.38648690000008,1.495485700000074],[109.41087580000004,1.507693400000051],[109.46613980000006,1.523088600000051],[109.453601,1.539834300000052],[109.44894750000009,1.594682500000033],[109.43457690000008,1.638838],[109.44064420000007,1.688036600000032],[109.454514,1.70305170000006],[109.45090190000008,1.719346100000053],[109.46084720000005,1.734519500000033]]]}},{"type":"Feature","properties":{"id":"tangaran","name":"Tangaran","type":"kecamatan"},"geometry":{"type":"Polygon","coordinates":[[[109.08708890000008,1.479771200000073],[109.13794220000005,1.489850100000069],[109.17001520000008,1.510563700000034],[109.18879220000008,1.509463700000026],[109.22929390000007,1.520761],[109.221386,1.525206500000024],[109.22422580000006,1.531175200000064],[109.20977050000005,1.536277900000073],[109.21071570000004,1.541655800000058],[109.19666430000007,1.544644100000028],[109.18613520000008,1.564723900000047],[109.21471020000007,1.564643600000068],[109.21357440000008,1.604258200000061],[109.18527780000005,1.597311600000069],[109.16200970000006,1.603855300000021],[109.15417610000009,1.600419],[109.11936410000004,1.579873400000054],[109.06792230000008,1.533774300000061],[109.05942530000004,1.524751800000047],[109.07270960000005,1.515447],[109.08708890000008,1.479771200000073]]]}},{"type":"Feature","properties":{"id":"paloh","name":"Paloh","type":"kecamatan"},"geometry":{"type":"Polygon","coordinates":[[[109.46084720000005,1.734519500000033],[109.45729830000005,1.776306500000032],[109.47418570000008,1.811824800000068],[109.50197720000006,1.813307200000054],[109.54210310000008,1.80434230000003],[109.58575450000006,1.82028],[109.57624020000009,1.846744200000046],[109.56371790000009,1.843260500000042],[109.55334070000004,1.853552100000059],[109.55828660000009,1.872063800000035],[109.54955360000008,1.877283700000021],[109.53805140000009,1.927141600000027],[109.55623520000006,1.928755],[109.56443390000004,1.936611300000038],[109.564907,1.951224400000058],[109.55171490000004,1.95623],[109.56024420000006,1.971219900000051],[109.59348850000003,1.979080200000055],[109.600619,1.973893300000043],[109.62725310000008,1.990745100000026],[109.62969580000004,2.01417790000005],[109.63820810000004,2.027710900000045],[109.63025430000005,2.045948800000076],[109.64456540000003,2.081301],[109.62547390000009,2.06497580000007],[109.59764570000004,2.004689900000074],[109.58490020000005,1.990052700000035],[109.47649390000004,1.982379200000025],[109.452331,1.974198500000057],[109.42892470000004,1.950459400000057],[109.33725410000005,1.943155],[109.322172,1.926545900000065],[109.34343520000004,1.875832],[109.33455940000005,1.857476400000053],[109.33892360000004,1.863709200000073],[109.33729110000007,1.833179],[109.28769850000003,1.776888100000065],[109.30054330000007,1.768079400000033],[109.28902530000005,1.75212],[109.281807,1.721606],[109.270262,1.715085100000067],[109.26249330000007,1.67675360000004],[109.23161490000007,1.640619900000047],[109.16200970000006,1.603855300000021],[109.18527780000005,1.597311600000069],[109.24043840000007,1.607566900000052],[109.33122210000005,1.652881100000059],[109.35317730000008,1.681393900000046],[109.35324550000007,1.698210200000062],[109.40490320000004,1.741928600000051],[109.46084720000005,1.734519500000033]]]}},{"type":"Feature","properties":{"id":"sajingan-besar","name":"Sajingan Besar","type":"kecamatan"},"geometry":{"type":"Polygon","coordinates":[[[109.46613980000006,1.523088600000051],[109.48966280000008,1.52565850000002],[109.50487240000007,1.52022050000005],[109.54659540000006,1.526271100000031],[109.56462810000005,1.554108],[109.56666650000005,1.579707600000063],[109.640457,1.570009700000071],[109.63943,1.562661700000035],[109.60696290000004,1.540311200000076],[109.60651870000004,1.519823300000041],[109.60034630000007,1.514294600000028],[109.60699430000005,1.491279100000042],[109.58847050000008,1.485512300000039],[109.58573150000007,1.476302800000042],[109.56949740000005,1.467314800000054],[109.58020980000003,1.449017900000058],[109.60873010000006,1.430981],[109.63931130000009,1.443544700000075],[109.65250190000006,1.435862100000065],[109.664571,1.441124100000025],[109.67941610000008,1.44982090000002],[109.68443870000004,1.46219190000005],[109.70103470000004,1.467167700000061],[109.70418520000004,1.475937600000066],[109.71801980000004,1.475385300000028],[109.74170430000004,1.501927700000067],[109.750072,1.520432800000037],[109.74666510000009,1.543681900000024],[109.72176790000009,1.562761600000044],[109.70704250000006,1.586375],[109.69684860000007,1.588158],[109.68852510000005,1.609812100000056],[109.66199470000004,1.61741950000004],[109.65779650000007,1.63662290000002],[109.66701490000008,1.651858100000027],[109.66088520000005,1.693246700000032],[109.66987110000008,1.699267300000031],[109.66769830000004,1.733137900000031],[109.685125,1.768415600000026],[109.68295930000005,1.786175400000047],[109.66037280000006,1.798141200000032],[109.64290250000005,1.797133900000063],[109.63539830000008,1.80536120000005],[109.58632840000007,1.791899600000022],[109.57922310000004,1.805035600000053],[109.58575450000006,1.82028],[109.55201110000007,1.805566200000044],[109.48771780000004,1.81378170000005],[109.46718240000007,1.80549620000005],[109.45729830000005,1.776306500000032],[109.46123120000004,1.73426790000002],[109.45090190000008,1.719346100000053],[109.454514,1.70305170000006],[109.44064420000007,1.688036600000032],[109.43457690000008,1.638838],[109.44894750000009,1.594682500000033],[109.453601,1.539834300000052],[109.46613980000006,1.523088600000051]]]}}]}