{"type":"FeatureCollection","features":[{"type":"Feature","properties":{"id":"tangaran/arung-medang","name":"Arung Medang","type":"desa","parentId":"tangaran","code":"6101062008"},"geometry":{"type":"Polygon","coordinates":[[[109.1569,1.59],[109.1531,1.5997],[109.1122,1.5739],[109.1358,1.5599],[109.1567,1.5615],[109.1569,1.59]]]}},{"type":"Feature","properties":{"id":"tangaran/arung-parak","name":"Arung Parak","type":"desa","parentId":"tangaran","code":"6101062006"},"geometry":{"type":"Polygon","coordinates":[[[109.1632,1.6025],[109.1531,1.5997],[109.1558,1.5911],[109.1653,1.5837],[109.1765,1.5841],[109.1856,1.5974],[109.1632,1.6025]]]}},{"type":"Feature","properties":{"id":"jawai/bakau","name":"Bakau","type":"desa","parentId":"jawai","code":"6101050013"},"geometry":{"type":"Polygon","coordinates":[[[109.1312,1.3313],[109.1273,1.3429],[109.0431,1.3611],[109.042,1.3507],[109.0705,1.3392],[109.1096,1.3285],[109.1312,1.3313]]]}},{"type":"Feature","properties":{"id":"subah/balai-gemuruh","name":"Balai Gemuruh","type":"desa","parentId":"subah","code":"6101041010"},"geometry":{"type":"Polygon","coordinates":[[[109.4786,1.1887],[109.4786,1.2119],[109.4117,1.2088],[109.3938,1.1635],[109.365,1.1403],[109.376,1.0689],[109.4351,1.0426],[109.4797,1.1069],[109.4786,1.1887]]]}},{"type":"Feature","properties":{"id":"tebas/batu-makjage","name":"Batu Makjage","type":"desa","parentId":"tebas","code":"6101030003"},"geometry":{"type":"Polygon","coordinates":[[[109.2157,1.1601],[109.1961,1.167],[109.1814,1.1815],[109.1621,1.1775],[109.152,1.1673],[109.1606,1.1526],[109.1695,1.1504],[109.1985,1.1519],[109.2157,1.1601]]]}},{"type":"Feature","properties":{"id":"tebas/bekut","name":"Bekut","type":"desa","parentId":"tebas","code":"6101030019"},"geometry":{"type":"Polygon","coordinates":[[[109.1826,1.2391],[109.1598,1.2452],[109.1468,1.254],[109.1447,1.2485],[109.167,1.2283],[109.1854,1.225],[109.1876,1.2384],[109.1826,1.2391]]]}},{"type":"Feature","properties":{"id":"selakau/bentunai","name":"Bentunai","type":"desa","parentId":"selakau","code":"6101010009"},"geometry":{"type":"Polygon","coordinates":[[[109.0536,1.1004],[109.029,1.1051],[109.021,1.0729],[109.0233,1.0678],[109.0414,1.0818],[109.0468,1.0959],[109.0536,1.1004]]]}},{"type":"Feature","properties":{"id":"sajad/beringin","name":"Beringin","type":"desa","parentId":"sajad","code":"6101043004"},"geometry":{"type":"Polygon","coordinates":[[[109.4546,1.4086],[109.4456,1.4128],[109.4206,1.3736],[109.4165,1.343],[109.4209,1.3104],[109.4781,1.3632],[109.4611,1.405],[109.4546,1.4086]]]}},{"type":"Feature","properties":{"id":"teluk-keramat/berlimang","name":"Berlimang","type":"desa","parentId":"teluk-keramat","code":"6101060004"},"geometry":{"type":"Polygon","coordinates":[[[109.1893,1.4017],[109.1638,1.3909],[109.1195,1.3961],[109.1218,1.381],[109.1662,1.3661],[109.2003,1.3426],[109.2213,1.3717],[109.2144,1.3785],[109.2085,1.378],[109.2045,1.386],[109.1952,1.3879],[109.1893,1.4017]]]}},{"type":"Feature","properties":{"id":"selakau-timur/buduk-sempadang","name":"Buduk Sempadang","type":"desa","parentId":"selakau-timur","code":"6101011004"},"geometry":{"type":"Polygon","coordinates":[[[109.1598,1.1186],[109.1452,1.1237],[109.1369,1.1086],[109.119,1.0987],[109.1128,1.07],[109.0869,1.0456],[109.0848,1.0009],[109.0886,0.9909],[109.0956,0.9912],[109.0963,1.0049],[109.108,1.005],[109.1083,1.012],[109.1209,1.0111],[109.1303,1.0184],[109.1352,1.0115],[109.147,1.0103],[109.1509,0.9931],[109.1451,0.9904],[109.1501,0.9872],[109.1498,0.98],[109.1627,0.9722],[109.1737,0.9794],[109.1729,0.9665],[109.1879,0.9641],[109.2038,0.9722],[109.2132,0.9877],[109.2292,0.9885],[109.2336,0.9955],[109.2314,1.0029],[109.2061,1.0102],[109.1861,1.0324],[109.1888,1.0506],[109.1821,1.0732],[109.1607,1.0835],[109.1571,1.0971],[109.1623,1.1123],[109.1598,1.1186]]]}},{"type":"Feature","properties":{"id":"subah/bukit-mulya","name":"Bukit Mulya","type":"desa","parentId":"subah","code":"6101041005"},"geometry":{"type":"Polygon","coordinates":[[[109.536,1.1947],[109.5331,1.2126],[109.5439,1.2378],[109.5421,1.2548],[109.4726,1.2465],[109.4775,1.2283],[109.4786,1.1887],[109.536,1.1947]]]}},{"type":"Feature","properties":{"id":"tebas/bukit-segoler","name":"Bukit Segoler","type":"desa","parentId":"tebas","code":"6101030004"},"geometry":{"type":"Polygon","coordinates":[[[109.1406,1.171],[109.1376,1.1717],[109.1364,1.1351],[109.1437,1.1232],[109.1663,1.1158],[109.178,1.1239],[109.1865,1.113],[109.2032,1.1199],[109.2087,1.1111],[109.2088,1.1206],[109.2248,1.1273],[109.2162,1.1603],[109.1985,1.1519],[109.1639,1.1511],[109.1528,1.1667],[109.1406,1.171]]]}},{"type":"Feature","properties":{"id":"tekarang/cepala","name":"Cepala","type":"desa","parentId":"tekarang","code":"6101031006"},"geometry":{"type":"Polygon","coordinates":[[[109.1471,1.2891],[109.1504,1.3006],[109.1252,1.3197],[109.1163,1.3032],[109.1471,1.2891]]]}},{"type":"Feature","properties":{"id":"sambas/dalam-kaum","name":"Dalam Kaum","type":"desa","parentId":"sambas","code":"6101040029"},"geometry":{"type":"Polygon","coordinates":[[[109.3437,1.378],[109.332,1.3793],[109.3174,1.3715],[109.3154,1.3518],[109.3411,1.3429],[109.339,1.3373],[109.3451,1.3383],[109.3543,1.3264],[109.3637,1.3283],[109.3612,1.3188],[109.3651,1.3089],[109.3587,1.3041],[109.3726,1.2948],[109.3758,1.2793],[109.3951,1.2947],[109.3894,1.3369],[109.3759,1.3629],[109.352,1.3571],[109.3437,1.378]]]}},{"type":"Feature","properties":{"id":"jawai/dungun-laut","name":"Dungun Laut","type":"desa","parentId":"jawai","code":"6101050010"},"geometry":{"type":"Polygon","coordinates":[[[109.0699,1.2997],[109.0286,1.3188],[109.0115,1.2971],[109.033,1.282],[109.0473,1.2971],[109.0639,1.2943],[109.0699,1.2997]]]}},{"type":"Feature","properties":{"id":"tebas/dungun-perapakan","name":"Dungun Perapakan","type":"desa","parentId":"tebas","code":"6101030014"},"geometry":{"type":"Polygon","coordinates":[[[109.1814,1.1815],[109.1711,1.1953],[109.1536,1.2037],[109.1419,1.2021],[109.1433,1.1863],[109.1621,1.1775],[109.1814,1.1815]]]}},{"type":"Feature","properties":{"id":"sambas/durian","name":"Durian","type":"desa","parentId":"sambas","code":"6101040024"},"geometry":{"type":"Polygon","coordinates":[[[109.3047,1.3648],[109.2891,1.3589],[109.304,1.3555],[109.3047,1.3648]]]}},{"type":"Feature","properties":{"id":"galing/galing","name":"Galing","type":"desa","parentId":"galing","code":"6101061005"},"geometry":{"type":"Polygon","coordinates":[[[109.3865,1.5259],[109.385,1.5376],[109.3737,1.5538],[109.3515,1.5343],[109.3512,1.507],[109.3616,1.5026],[109.3865,1.5259]]]}},{"type":"Feature","properties":{"id":"sambas/gapura","name":"Gapura","type":"desa","parentId":"sambas","code":"6101040020"},"geometry":{"type":"Polygon","coordinates":[[[109.242,1.393],[109.2305,1.3862],[109.2174,1.3615],[109.1961,1.3372],[109.2112,1.321],[109.2499,1.3418],[109.2391,1.3529],[109.2594,1.3821],[109.242,1.393]]]}},{"type":"Feature","properties":{"id":"selakau/gayung-bersambut","name":"Gayung Bersambut","type":"desa","parentId":"selakau","code":"6101010011"},"geometry":{"type":"Polygon","coordinates":[[[109.0304,0.9902],[109.0627,0.9896],[109.0758,0.9926],[109.0848,1.0009],[109.0603,1.0044],[109.0593,1.0105],[109.0497,1.0152],[109.0234,1.0152],[109.0304,0.9902]]]}},{"type":"Feature","properties":{"id":"selakau-timur/gelik","name":"Gelik","type":"desa","parentId":"selakau-timur","code":"6101011001"},"geometry":{"type":"Polygon","coordinates":[[[109.0651,1.097],[109.0536,1.1004],[109.0475,1.0966],[109.0425,1.083],[109.024,1.0692],[109.0259,1.0643],[109.0437,1.0699],[109.0594,1.0834],[109.0651,1.097]]]}},{"type":"Feature","properties":{"id":"pemangkat/gugah-sejahtera","name":"Gugah Sejahtera","type":"desa","parentId":"pemangkat","code":"6101020017"},"geometry":{"type":"Polygon","coordinates":[[[108.9954,1.1646],[108.986,1.1763],[108.9763,1.1573],[109.0087,1.1578],[109.0088,1.1639],[108.9954,1.1646]]]}},{"type":"Feature","properties":{"id":"pemangkat/harapan","name":"Harapan","type":"desa","parentId":"pemangkat","code":"6101020013"},"geometry":{"type":"Polygon","coordinates":[[[108.9898,1.1802],[108.986,1.1763],[108.9879,1.1694],[109.0088,1.1639],[109.009,1.1759],[108.9898,1.1802]]]}},{"type":"Feature","properties":{"id":"sambas/jagur","name":"Jagur","type":"desa","parentId":"sambas","code":"6101040032"},"geometry":{"type":"Polygon","coordinates":[[[109.3065,1.3642],[109.2977,1.4021],[109.2895,1.402],[109.2835,1.3891],[109.2924,1.3804],[109.2987,1.3642],[109.3065,1.3642]]]}},{"type":"Feature","properties":{"id":"jawai-selatan/jawai-laut","name":"Jawai Laut","type":"desa","parentId":"jawai-selatan","code":"6101051001"},"geometry":{"type":"Polygon","coordinates":[[[109.0218,1.2876],[109.0115,1.2971],[108.9897,1.2759],[108.9877,1.2616],[108.9973,1.2657],[109.0117,1.2622],[109.0218,1.2876]]]}},{"type":"Feature","properties":{"id":"jawai-selatan/jelu-air","name":"Jelu Air","type":"desa","parentId":"jawai-selatan","code":"6101051002"},"geometry":{"type":"Polygon","coordinates":[[[109.0221,1.2501],[109.0244,1.26],[108.9973,1.2657],[108.9877,1.2616],[108.9596,1.2057],[108.9711,1.1823],[108.9707,1.19],[108.9809,1.2053],[109.0129,1.2069],[109.0113,1.2263],[109.0189,1.2349],[109.0221,1.2501]]]}},{"type":"Feature","properties":{"id":"pemangkat/jelutung","name":"Jelutung","type":"desa","parentId":"pemangkat","code":"6101020012"},"geometry":{"type":"Polygon","coordinates":[[[109.0087,1.1578],[108.9763,1.1573],[108.9735,1.1291],[108.992,1.1366],[108.9994,1.1257],[109.0032,1.1351],[109.0138,1.1356],[109.0087,1.1578]]]}},{"type":"Feature","properties":{"id":"sajad/jirak","name":"Jirak","type":"desa","parentId":"sajad","code":"6101043001"},"geometry":{"type":"Polygon","coordinates":[[[109.3626,1.395],[109.3668,1.4153],[109.3454,1.4138],[109.3503,1.3988],[109.3626,1.395]]]}},{"type":"Feature","properties":{"id":"sajingan-besar/kaliau","name":"Kaliau'","type":"desa","parentId":"sajingan-besar","code":"6101080002"},"geometry":{"type":"Polygon","coordinates":[[[109.6617,1.6206],[109.6578,1.6366],[109.667,1.6519],[109.6618,1.6689],[109.6488,1.6638],[109.6155,1.6337],[109.5701,1.6338],[109.5747,1.6065],[109.5667,1.5797],[109.5844,1.5806],[109.5991,1.5739],[109.6363,1.5713],[109.6433,1.5667],[109.6491,1.5728],[109.6535,1.5911],[109.6503,1.5974],[109.6617,1.6206]]]}},{"type":"Feature","properties":{"id":"paloh/kalimantan","name":"Kalimantan","type":"desa","parentId":"paloh","code":"6101090001"},"geometry":{"type":"Polygon","coordinates":[[[109.1859,1.5976],[109.1944,1.618],[109.162,1.6039],[109.1859,1.5976]]]}},{"type":"Feature","properties":{"id":"subah/karaban-jaya","name":"Karaban Jaya","type":"desa","parentId":"subah","code":"6101041009"},"geometry":{"type":"Polygon","coordinates":[[[109.4518,1.2266],[109.4518,1.2461],[109.4357,1.2461],[109.4357,1.2266],[109.4518,1.2266]]]}},{"type":"Feature","properties":{"id":"sambas/kartiasa","name":"Kartiasa","type":"desa","parentId":"sambas","code":"6101040021"},"geometry":{"type":"Polygon","coordinates":[[[109.2784,1.4085],[109.2674,1.3841],[109.2536,1.375],[109.2721,1.3665],[109.2895,1.402],[109.2784,1.4085]]]}},{"type":"Feature","properties":{"id":"selakau/kuala","name":"Kuala","type":"desa","parentId":"selakau","code":"6101010006"},"geometry":{"type":"Polygon","coordinates":[[[108.9425,1.0901],[108.9501,1.0672],[108.9572,1.062],[108.9672,1.0652],[108.9626,1.0885],[108.9425,1.0901]]]}},{"type":"Feature","properties":{"id":"teluk-keramat/kuala-pangkalan-keramat","name":"Kuala Pangkalan Keramat","type":"desa","parentId":"teluk-keramat","code":"6101060019"},"geometry":{"type":"Polygon","coordinates":[[[109.2863,1.5394],[109.2805,1.5471],[109.2797,1.5411],[109.2861,1.4848],[109.2985,1.48],[109.3044,1.4972],[109.2945,1.5108],[109.2863,1.5394]]]}},{"type":"Feature","properties":{"id":"teluk-keramat/kubangga","name":"Kubangga","type":"desa","parentId":"teluk-keramat","code":"6101060006"},"geometry":{"type":"Polygon","coordinates":[[[109.2749,1.4053],[109.2509,1.4063],[109.2398,1.4018],[109.242,1.393],[109.2629,1.3818],[109.2679,1.3849],[109.2749,1.4053]]]}},{"type":"Feature","properties":{"id":"jawai/lambau","name":"Lambau","type":"desa","parentId":"jawai","code":"6101050021"},"geometry":{"type":"Polygon","coordinates":[[[109.1297,1.3664],[109.1272,1.3718],[109.042,1.3811],[109.0438,1.3752],[109.0603,1.3751],[109.0696,1.3699],[109.1297,1.3664]]]}},{"type":"Feature","properties":{"id":"teluk-keramat/lela","name":"Lela","type":"desa","parentId":"teluk-keramat","code":"6101060008"},"geometry":{"type":"Polygon","coordinates":[[[109.2307,1.4268],[109.2211,1.4206],[109.2087,1.4269],[109.1777,1.4292],[109.1286,1.4244],[109.1168,1.4204],[109.116,1.4103],[109.1195,1.3961],[109.1638,1.3909],[109.1838,1.4009],[109.206,1.401],[109.2282,1.3829],[109.2425,1.3957],[109.2307,1.4268]]]}},{"type":"Feature","properties":{"id":"pemangkat/lonam","name":"Lonam","type":"desa","parentId":"pemangkat","code":"6101020018"},"geometry":{"type":"Polygon","coordinates":[[[109.0096,1.207],[109.0017,1.2073],[108.9898,1.1802],[109.009,1.1759],[109.0096,1.207]]]}},{"type":"Feature","properties":{"id":"sambas/lorong","name":"Lorong","type":"desa","parentId":"sambas","code":"6101040033"},"geometry":{"type":"Polygon","coordinates":[[[109.2987,1.3642],[109.2924,1.3804],[109.2835,1.3891],[109.2721,1.3665],[109.2893,1.359],[109.2987,1.3642]]]}},{"type":"Feature","properties":{"id":"sambas/lubuk-dagang","name":"Lubuk Dagang","type":"desa","parentId":"sambas","code":"6101040028"},"geometry":{"type":"Polygon","coordinates":[[[109.3748,1.2791],[109.3726,1.2948],[109.3583,1.306],[109.3651,1.3089],[109.3612,1.3188],[109.3637,1.3283],[109.3543,1.3264],[109.3451,1.3383],[109.339,1.3373],[109.3411,1.3429],[109.3234,1.3509],[109.3114,1.3506],[109.3064,1.345],[109.3233,1.3179],[109.3199,1.285],[109.3327,1.2654],[109.3521,1.2487],[109.3681,1.2606],[109.369,1.2735],[109.3748,1.2791]]]}},{"type":"Feature","properties":{"id":"sambas/lumbang","name":"Lumbang","type":"desa","parentId":"sambas","code":"6101040023"},"geometry":{"type":"Polygon","coordinates":[[[109.2908,1.3382],[109.2777,1.3462],[109.2743,1.3366],[109.2999,1.3173],[109.3199,1.285],[109.3239,1.2994],[109.3218,1.3157],[109.2908,1.3382]]]}},{"type":"Feature","properties":{"id":"subah/madak","name":"Madak","type":"desa","parentId":"subah","code":"6101041011"},"geometry":{"type":"Polygon","coordinates":[[[109.4022,1.2382],[109.3521,1.2485],[109.3038,1.2129],[109.2663,1.2141],[109.2539,1.19],[109.2548,1.1792],[109.2792,1.1669],[109.3084,1.1786],[109.3204,1.1774],[109.365,1.1403],[109.3938,1.1635],[109.4048,1.1894],[109.4118,1.2086],[109.4022,1.2382]]]}},{"type":"Feature","properties":{"id":"tebas/mak-rampai","name":"Mak Rampai","type":"desa","parentId":"tebas","code":"6101030020"},"geometry":{"type":"Polygon","coordinates":[[[109.1447,1.2485],[109.1398,1.2441],[109.1556,1.2259],[109.1522,1.2174],[109.1681,1.2093],[109.1738,1.216],[109.1636,1.2216],[109.162,1.2277],[109.167,1.2283],[109.1447,1.2485]]]}},{"type":"Feature","properties":{"id":"tebas/mak-tangguk","name":"Mak Tangguk","type":"desa","parentId":"tebas","code":"6101030007"},"geometry":{"type":"Polygon","coordinates":[[[109.1158,1.1099],[109.1164,1.1372],[109.1099,1.1705],[109.1059,1.1703],[109.1012,1.1692],[109.1024,1.1551],[109.1158,1.1099]]]}},{"type":"Feature","properties":{"id":"paloh/malek","name":"Malek","type":"desa","parentId":"paloh","code":"6101090004"},"geometry":{"type":"Polygon","coordinates":[[[109.2805,1.7198],[109.2703,1.7153],[109.2662,1.6896],[109.3007,1.6653],[109.3134,1.6473],[109.3328,1.6539],[109.3439,1.6731],[109.3295,1.6958],[109.3139,1.7079],[109.2805,1.7198]]]}},{"type":"Feature","properties":{"id":"tebas/maribas","name":"Maribas","type":"desa","parentId":"tebas","code":"6101030002"},"geometry":{"type":"Polygon","coordinates":[[[109.2291,1.2009],[109.2182,1.1959],[109.2168,1.186],[109.2162,1.1603],[109.2248,1.1273],[109.2088,1.1206],[109.2087,1.1111],[109.2032,1.1199],[109.1839,1.1134],[109.178,1.1239],[109.1666,1.1159],[109.1598,1.1186],[109.1623,1.1123],[109.1571,1.0971],[109.162,1.0811],[109.1772,1.0781],[109.1838,1.0695],[109.1889,1.05],[109.1864,1.0319],[109.2075,1.0092],[109.2299,1.0022],[109.2346,1.0169],[109.2463,1.0297],[109.2405,1.0415],[109.2412,1.0612],[109.2506,1.0868],[109.2803,1.0977],[109.3325,1.1035],[109.3492,1.1153],[109.3677,1.117],[109.368,1.1252],[109.365,1.1405],[109.3204,1.1774],[109.3084,1.1786],[109.2792,1.1669],[109.2564,1.1763],[109.254,1.19],[109.2445,1.198],[109.2291,1.2009]]]}},{"type":"Feature","properties":{"id":"paloh/matang-danau","name":"Matang Danau","type":"desa","parentId":"paloh","code":"6101090002"},"geometry":{"type":"Polygon","coordinates":[[[109.2174,1.6275],[109.2185,1.6316],[109.1944,1.618],[109.1859,1.5976],[109.2135,1.6042],[109.2174,1.6275]]]}},{"type":"Feature","properties":{"id":"tebas/matang-labung","name":"Matang Labung","type":"desa","parentId":"tebas","code":"6101030006"},"geometry":{"type":"Polygon","coordinates":[[[109.1279,1.1727],[109.1099,1.1705],[109.1189,1.0987],[109.1287,1.1016],[109.1379,1.1122],[109.1259,1.1344],[109.1279,1.1727]]]}},{"type":"Feature","properties":{"id":"teluk-keramat/matang-segantar","name":"Matang Segantar","type":"desa","parentId":"teluk-keramat","code":"6101060036"},"geometry":{"type":"Polygon","coordinates":[[[109.2479,1.5534],[109.2325,1.6059],[109.2136,1.6043],[109.2139,1.5552],[109.2177,1.5445],[109.2479,1.5534]]]}},{"type":"Feature","properties":{"id":"tekarang/matang-segarau","name":"Matang Segarau","type":"desa","parentId":"tekarang","code":"6101031001"},"geometry":{"type":"Polygon","coordinates":[[[109.0976,1.282],[109.0762,1.3046],[109.0617,1.2923],[109.0629,1.2794],[109.0747,1.2583],[109.0785,1.253],[109.0976,1.2608],[109.1161,1.236],[109.128,1.2395],[109.0976,1.282]]]}},{"type":"Feature","properties":{"id":"jawai-selatan/matang-terap","name":"Matang Terap","type":"desa","parentId":"jawai-selatan","code":"6101051008"},"geometry":{"type":"Polygon","coordinates":[[[109.0329,1.282],[109.0218,1.2876],[109.0117,1.2622],[109.0241,1.26],[109.0329,1.282]]]}},{"type":"Feature","properties":{"id":"sajad/mekar-jaya","name":"Mekar Jaya","type":"desa","parentId":"sajad","code":"6101043003"},"geometry":{"type":"Polygon","coordinates":[[[109.4248,1.4124],[109.3925,1.4162],[109.3981,1.3934],[109.3977,1.3626],[109.3888,1.3381],[109.3953,1.301],[109.3926,1.2895],[109.4209,1.3104],[109.4165,1.343],[109.4191,1.3691],[109.4456,1.4123],[109.4248,1.4124]]]}},{"type":"Feature","properties":{"id":"tebas/mekar-sekuntum","name":"Mekar Sekuntum","type":"desa","parentId":"tebas","code":"6101030022"},"geometry":{"type":"Polygon","coordinates":[[[109.1367,1.2225],[109.1265,1.2392],[109.1113,1.2323],[109.1314,1.2061],[109.1356,1.2093],[109.1419,1.2021],[109.1536,1.2037],[109.1367,1.2225]]]}},{"type":"Feature","properties":{"id":"teluk-keramat/mekar-sekuntum","name":"Mekar Sekuntum","type":"desa","parentId":"teluk-keramat","code":"6101060020"},"geometry":{"type":"Polygon","coordinates":[[[109.2764,1.4876],[109.2861,1.4848],[109.2819,1.5135],[109.2764,1.5124],[109.2725,1.4987],[109.2764,1.4876]]]}},{"type":"Feature","properties":{"id":"subah/mensade","name":"Mensade","type":"desa","parentId":"subah","code":"6101041002"},"geometry":{"type":"Polygon","coordinates":[[[109.5159,1.1199],[109.5196,1.1559],[109.4792,1.1544],[109.4799,1.1189],[109.5159,1.1199]]]}},{"type":"Feature","properties":{"id":"tebas/mensere","name":"Mensere","type":"desa","parentId":"tebas","code":"6101030010"},"geometry":{"type":"Polygon","coordinates":[[[109.1314,1.2061],[109.1113,1.2323],[109.0973,1.2233],[109.1152,1.1963],[109.1314,1.2061]]]}},{"type":"Feature","properties":{"id":"paloh/mentibar","name":"Mentibar","type":"desa","parentId":"paloh","code":"6101090008"},"geometry":{"type":"Polygon","coordinates":[[[109.2693,1.6879],[109.2662,1.6896],[109.2586,1.6699],[109.2438,1.6514],[109.262,1.6427],[109.2735,1.623],[109.3134,1.6473],[109.3007,1.6653],[109.2693,1.6879]]]}},{"type":"Feature","properties":{"id":"tangaran/merabuan","name":"Merabuan","type":"desa","parentId":"tangaran","code":"6101062007"},"geometry":{"type":"Polygon","coordinates":[[[109.2147,1.5646],[109.2136,1.6043],[109.1857,1.5975],[109.1768,1.5855],[109.174,1.5635],[109.1776,1.5599],[109.1831,1.565],[109.2147,1.5646]]]}},{"type":"Feature","properties":{"id":"tangaran/merpati","name":"Merpati","type":"desa","parentId":"tangaran","code":"6101062003"},"geometry":{"type":"Polygon","coordinates":[[[109.1863,1.5645],[109.177,1.5603],[109.1789,1.5341],[109.1906,1.5302],[109.2101,1.5364],[109.2107,1.5417],[109.1967,1.5446],[109.1863,1.5645]]]}},{"type":"Feature","properties":{"id":"tekarang/merubong","name":"Merubong","type":"desa","parentId":"tekarang","code":"6101031007"},"geometry":{"type":"Polygon","coordinates":[[[109.1312,1.3313],[109.1096,1.3285],[109.1431,1.3076],[109.1504,1.3006],[109.1471,1.2891],[109.1609,1.2839],[109.1678,1.2971],[109.1393,1.331],[109.1312,1.3313]]]}},{"type":"Feature","properties":{"id":"subah/mukti-raharja","name":"Mukti Raharja","type":"desa","parentId":"subah","code":"6101041008"},"geometry":{"type":"Polygon","coordinates":[[[109.4726,1.2465],[109.4656,1.2972],[109.4481,1.3371],[109.4103,1.3004],[109.4022,1.2382],[109.4117,1.2088],[109.4786,1.2119],[109.4726,1.2465]],[[109.4518,1.2266],[109.4357,1.2266],[109.4357,1.2461],[109.4518,1.2461],[109.4518,1.2266]]]}},{"type":"Feature","properties":{"id":"teluk-keramat/mulia","name":"Mulia","type":"desa","parentId":"teluk-keramat","code":"6101060035"},"geometry":{"type":"Polygon","coordinates":[[[109.2147,1.5646],[109.1861,1.5647],[109.1967,1.5446],[109.2107,1.5417],[109.2098,1.5363],[109.2208,1.5305],[109.2147,1.5646]]]}},{"type":"Feature","properties":{"id":"jawai/mutus-darussalam","name":"Mutus Darussalam","type":"desa","parentId":"jawai","code":"6101050022"},"geometry":{"type":"Polygon","coordinates":[[[109.1101,1.4295],[109.1068,1.4369],[109.0461,1.4343],[109.1101,1.4295]]]}},{"type":"Feature","properties":{"id":"paloh/nibung","name":"Nibung","type":"desa","parentId":"paloh","code":"6101090005"},"geometry":{"type":"Polygon","coordinates":[[[109.3084,1.7694],[109.3006,1.7682],[109.2896,1.7532],[109.2805,1.7198],[109.3213,1.7042],[109.3439,1.6731],[109.3532,1.6814],[109.3532,1.6982],[109.3672,1.714],[109.3848,1.7227],[109.4049,1.7419],[109.3685,1.7443],[109.3535,1.7558],[109.3084,1.7694]]]}},{"type":"Feature","properties":{"id":"tangaran/pancur","name":"Pancur","type":"desa","parentId":"tangaran","code":"6101062005"},"geometry":{"type":"Polygon","coordinates":[[[109.1567,1.5615],[109.1735,1.5652],[109.1765,1.5841],[109.1653,1.5837],[109.1569,1.59],[109.1567,1.5615]]]}},{"type":"Feature","properties":{"id":"selakau/pangkalan-bemban","name":"Pangkalan Bemban","type":"desa","parentId":"selakau","code":"6101010004"},"geometry":{"type":"Polygon","coordinates":[[[109.0134,1.0572],[109.0066,1.0616],[109.007,1.0672],[109.0033,1.0592],[108.995,1.0578],[108.9981,1.0372],[109.0096,1.0375],[109.0206,1.0441],[109.0282,1.0406],[109.031,1.0462],[109.0134,1.0572]]]}},{"type":"Feature","properties":{"id":"tebas/pangkalan-kongsi","name":"Pangkalan Kongsi","type":"desa","parentId":"tebas","code":"6101030013"},"geometry":{"type":"Polygon","coordinates":[[[109.1621,1.1775],[109.1433,1.1863],[109.1406,1.171],[109.152,1.1673],[109.1621,1.1775]]]}},{"type":"Feature","properties":{"id":"selakau/parit-baru","name":"Parit Baru","type":"desa","parentId":"selakau","code":"6101010007"},"geometry":{"type":"Polygon","coordinates":[[[108.9798,1.0882],[108.9626,1.0885],[108.9672,1.0652],[108.9823,1.0558],[108.9798,1.0882]]]}},{"type":"Feature","properties":{"id":"salatiga/parit-baru","name":"Parit Baru","type":"desa","parentId":"salatiga","code":"6101022001"},"geometry":{"type":"Polygon","coordinates":[[[108.9805,1.1324],[108.9687,1.1298],[108.9668,1.1198],[108.9506,1.1139],[108.948,1.1052],[108.934,1.1205],[108.9287,1.1115],[108.9318,1.0972],[108.9557,1.0865],[109.0005,1.0893],[109.0092,1.102],[108.9819,1.1109],[108.9805,1.1324]]]}},{"type":"Feature","properties":{"id":"selakau/parit-kongsi","name":"Parit Kongsi","type":"desa","parentId":"selakau","code":"6101010010"},"geometry":{"type":"Polygon","coordinates":[[[109.0096,1.0375],[109.0188,1.0325],[109.0199,1.0264],[109.0388,1.0277],[109.0413,1.0608],[109.0462,1.0652],[109.0432,1.0704],[109.0276,1.0632],[109.0212,1.07],[109.0237,1.0772],[109.0198,1.0769],[109.0125,1.0669],[109.0134,1.0572],[109.031,1.0462],[109.0282,1.0406],[109.0206,1.0441],[109.0096,1.0375]]]}},{"type":"Feature","properties":{"id":"sejangkung/parit-raja","name":"Parit Raja","type":"desa","parentId":"sejangkung","code":"6101070007"},"geometry":{"type":"Polygon","coordinates":[[[109.3825,1.4442],[109.3558,1.4517],[109.334,1.4396],[109.3184,1.438],[109.3129,1.4339],[109.3166,1.4173],[109.3237,1.4054],[109.3465,1.4142],[109.3807,1.4159],[109.3825,1.4442]]]}},{"type":"Feature","properties":{"id":"jawai/parit-setia","name":"Parit Setia","type":"desa","parentId":"jawai","code":"6101050014"},"geometry":{"type":"Polygon","coordinates":[[[109.0448,1.3724],[109.0431,1.3611],[109.1273,1.3429],[109.1312,1.3313],[109.1391,1.3309],[109.1347,1.3565],[109.0916,1.3576],[109.0448,1.3724]]]}},{"type":"Feature","properties":{"id":"sambas/pasar-melayu","name":"Pasar Melayu","type":"desa","parentId":"sambas","code":"6101040025"},"geometry":{"type":"Polygon","coordinates":[[[109.3065,1.3642],[109.3035,1.356],[109.3105,1.3492],[109.3154,1.3516],[109.3157,1.359],[109.3065,1.3642]]]}},{"type":"Feature","properties":{"id":"teluk-keramat/pedada","name":"Pedada","type":"desa","parentId":"teluk-keramat","code":"6101060023"},"geometry":{"type":"Polygon","coordinates":[[[109.2369,1.5168],[109.2293,1.5208],[109.1977,1.5136],[109.2068,1.4942],[109.2175,1.4926],[109.2303,1.4967],[109.2369,1.5168]]]}},{"type":"Feature","properties":{"id":"jawai/pelimpaan","name":"Pelimpaan","type":"desa","parentId":"jawai","code":"6101050015"},"geometry":{"type":"Polygon","coordinates":[[[109.1297,1.3664],[109.0748,1.3691],[109.0542,1.3762],[109.0427,1.3738],[109.0983,1.3566],[109.1347,1.3565],[109.1297,1.3664]]]}},{"type":"Feature","properties":{"id":"pemangkat/pemangkat-kota","name":"Pemangkat Kota","type":"desa","parentId":"pemangkat","code":"6101020015"},"geometry":{"type":"Polygon","coordinates":[[[108.9692,1.1899],[108.9651,1.1903],[108.971,1.1762],[108.9561,1.166],[108.9474,1.1648],[108.9272,1.1756],[108.906,1.1735],[108.903,1.1628],[108.9091,1.15],[108.9734,1.1474],[108.986,1.1763],[108.9718,1.179],[108.9692,1.1899]]]}},{"type":"Feature","properties":{"id":"sejangkung/penakalan","name":"Penakalan","type":"desa","parentId":"sejangkung","code":"6101070011"},"geometry":{"type":"Polygon","coordinates":[[[109.304,1.409],[109.2962,1.4232],[109.2783,1.4085],[109.294,1.402],[109.3069,1.4026],[109.304,1.409]]]}},{"type":"Feature","properties":{"id":"sambas/pendawan","name":"Pendawan","type":"desa","parentId":"sambas","code":"6101040026"},"geometry":{"type":"Polygon","coordinates":[[[109.3104,1.3493],[109.304,1.3555],[109.297,1.3548],[109.2944,1.3469],[109.3002,1.3398],[109.3104,1.3493]]]}},{"type":"Feature","properties":{"id":"pemangkat/penjajap","name":"Penjajap","type":"desa","parentId":"pemangkat","code":"6101020014"},"geometry":{"type":"Polygon","coordinates":[[[108.9906,1.181],[109.0017,1.2073],[108.9809,1.2053],[108.9707,1.19],[108.9718,1.179],[108.9849,1.1761],[108.9906,1.181]]]}},{"type":"Feature","properties":{"id":"pemangkat/perapakan","name":"Perapakan","type":"desa","parentId":"pemangkat","code":"6101020011"},"geometry":{"type":"Polygon","coordinates":[[[109.0191,1.2075],[109.0096,1.207],[109.0087,1.1573],[109.0138,1.1356],[109.024,1.1446],[109.0349,1.1358],[109.0322,1.205],[109.0191,1.2075]]]}},{"type":"Feature","properties":{"id":"sejangkung/perigi-landu","name":"Perigi Landu","type":"desa","parentId":"sejangkung","code":"6101070006"},"geometry":{"type":"Polygon","coordinates":[[[109.3855,1.4756],[109.3864,1.495],[109.3659,1.4743],[109.3438,1.4701],[109.3441,1.445],[109.3558,1.4517],[109.3825,1.4442],[109.3855,1.4756]]]}},{"type":"Feature","properties":{"id":"sejangkung/perigi-limus","name":"Perigi Limus","type":"desa","parentId":"sejangkung","code":"6101070003"},"geometry":{"type":"Polygon","coordinates":[[[109.4661,1.5231],[109.4281,1.5095],[109.427,1.4721],[109.4317,1.451],[109.4282,1.4485],[109.4325,1.4452],[109.4261,1.4422],[109.4307,1.4368],[109.4248,1.4124],[109.4423,1.4142],[109.4546,1.4086],[109.4692,1.4185],[109.4645,1.426],[109.4703,1.4277],[109.4712,1.5226],[109.4661,1.5231]]]}},{"type":"Feature","properties":{"id":"sejangkung/piantus","name":"Piantus","type":"desa","parentId":"sejangkung","code":"6101070008"},"geometry":{"type":"Polygon","coordinates":[[[109.3441,1.445],[109.3438,1.4701],[109.3198,1.4624],[109.3252,1.4389],[109.3441,1.445]]]}},{"type":"Feature","properties":{"id":"teluk-keramat/pipit-teja","name":"Pipit Teja","type":"desa","parentId":"teluk-keramat","code":"6101060027"},"geometry":{"type":"Polygon","coordinates":[[[109.2541,1.5338],[109.2479,1.5534],[109.2177,1.5445],[109.2247,1.5305],[109.2226,1.5241],[109.232,1.5314],[109.2541,1.5338]]]}},{"type":"Feature","properties":{"id":"teluk-keramat/puringan","name":"Puringan","type":"desa","parentId":"teluk-keramat","code":"6101060005"},"geometry":{"type":"Polygon","coordinates":[[[109.2282,1.3829],[109.2099,1.4002],[109.1893,1.4017],[109.1952,1.3879],[109.2045,1.386],[109.2085,1.378],[109.2144,1.3785],[109.2213,1.3717],[109.2282,1.3829]]]}},{"type":"Feature","properties":{"id":"tebas/pusaka","name":"Pusaka","type":"desa","parentId":"tebas","code":"6101030009"},"geometry":{"type":"Polygon","coordinates":[[[109.1152,1.1963],[109.0973,1.2233],[109.085,1.2172],[109.108,1.1873],[109.1093,1.1704],[109.1223,1.1726],[109.1152,1.1963]]]}},{"type":"Feature","properties":{"id":"tekarang/rambayan","name":"Rambayan","type":"desa","parentId":"tekarang","code":"6101031002"},"geometry":{"type":"Polygon","coordinates":[[[109.1048,1.2853],[109.0976,1.282],[109.128,1.2395],[109.1425,1.246],[109.1463,1.2528],[109.1048,1.2853]]]}},{"type":"Feature","properties":{"id":"galing/ratu-sepudak","name":"Ratu Sepudak","type":"desa","parentId":"galing","code":"6101061001"},"geometry":{"type":"Polygon","coordinates":[[[109.4095,1.507],[109.4033,1.5255],[109.3864,1.5259],[109.3616,1.5026],[109.3514,1.5068],[109.3495,1.4868],[109.3658,1.4744],[109.3865,1.4955],[109.4095,1.507]]]}},{"type":"Feature","properties":{"id":"jawai-selatan/sabaran","name":"Sabaran","type":"desa","parentId":"jawai-selatan","code":"6101051005"},"geometry":{"type":"Polygon","coordinates":[[[109.0785,1.253],[109.072,1.2633],[109.0472,1.2528],[109.0625,1.2267],[109.0642,1.2038],[109.0973,1.2234],[109.0785,1.253]]]}},{"type":"Feature","properties":{"id":"teluk-keramat/sabing","name":"Sabing","type":"desa","parentId":"teluk-keramat","code":"6101060037"},"geometry":{"type":"Polygon","coordinates":[[[109.2755,1.4901],[109.2725,1.4987],[109.2764,1.5124],[109.2819,1.5135],[109.2805,1.5471],[109.2714,1.5516],[109.2666,1.562],[109.265,1.4898],[109.2755,1.4901]]]}},{"type":"Feature","properties":{"id":"subah/sabung","name":"Sabung","type":"desa","parentId":"subah","code":"6101041007"},"geometry":{"type":"Polygon","coordinates":[[[109.4022,1.2382],[109.4103,1.2998],[109.3723,1.2781],[109.3681,1.2606],[109.3512,1.2479],[109.4022,1.2382]]]}},{"type":"Feature","properties":{"id":"galing/sagu","name":"Sagu","type":"desa","parentId":"galing","code":"6101061003"},"geometry":{"type":"Polygon","coordinates":[[[109.4608,1.7345],[109.437,1.7395],[109.4218,1.7366],[109.4064,1.742],[109.3997,1.7348],[109.4064,1.7314],[109.41,1.7014],[109.4029,1.6403],[109.3777,1.5971],[109.3861,1.5808],[109.3996,1.571],[109.4135,1.5701],[109.4507,1.5806],[109.4346,1.6388],[109.4406,1.688],[109.4545,1.7031],[109.4509,1.7193],[109.4608,1.7345]]]}},{"type":"Feature","properties":{"id":"sambas/saing-rambi","name":"Saing Rambi","type":"desa","parentId":"sambas","code":"6101040022"},"geometry":{"type":"Polygon","coordinates":[[[109.2721,1.3665],[109.2536,1.375],[109.2391,1.3529],[109.2617,1.3297],[109.2747,1.3371],[109.2777,1.3462],[109.2909,1.3382],[109.297,1.3548],[109.2721,1.3665]]]}},{"type":"Feature","properties":{"id":"salatiga/salatiga","name":"Salatiga","type":"desa","parentId":"salatiga","code":"6101022002"},"geometry":{"type":"Polygon","coordinates":[[[109.021,1.1401],[109.009,1.1332],[109.0032,1.1351],[108.9994,1.1257],[108.9953,1.1265],[108.9926,1.1364],[108.9805,1.1343],[108.9819,1.1109],[109.0092,1.102],[109.0287,1.1051],[109.021,1.1401]]]}},{"type":"Feature","properties":{"id":"teluk-keramat/samustida","name":"Samustida","type":"desa","parentId":"teluk-keramat","code":"6101060026"},"geometry":{"type":"Polygon","coordinates":[[[109.2666,1.562],[109.2588,1.5803],[109.2365,1.6043],[109.2387,1.6071],[109.2324,1.6058],[109.255,1.5313],[109.2633,1.5316],[109.2666,1.562]]]}},{"type":"Feature","properties":{"id":"sajingan-besar/sanatab","name":"Sanatab","type":"desa","parentId":"sajingan-besar","code":"6101080003"},"geometry":{"type":"Polygon","coordinates":[[[109.6574,1.6676],[109.6618,1.6689],[109.6599,1.6766],[109.6643,1.6829],[109.6609,1.6932],[109.6699,1.6993],[109.6681,1.7201],[109.6614,1.7195],[109.6164,1.6987],[109.5956,1.6941],[109.5643,1.6622],[109.5594,1.6525],[109.5621,1.6394],[109.5722,1.633],[109.6155,1.6337],[109.6574,1.6676]]]}},{"type":"Feature","properties":{"id":"sajingan-besar/santaban","name":"Santaban","type":"desa","parentId":"sajingan-besar","code":"6101080004"},"geometry":{"type":"Polygon","coordinates":[[[109.6681,1.7201],[109.6677,1.7331],[109.6851,1.7684],[109.6832,1.7857],[109.6661,1.7666],[109.6125,1.7432],[109.5895,1.7235],[109.549,1.7263],[109.5157,1.7163],[109.4996,1.7161],[109.4612,1.7343],[109.4566,1.7304],[109.4509,1.7193],[109.4545,1.7031],[109.4403,1.6866],[109.4346,1.6388],[109.4366,1.6226],[109.4489,1.5947],[109.4536,1.5398],[109.4661,1.5231],[109.4897,1.5257],[109.5049,1.5202],[109.5324,1.5224],[109.55,1.529],[109.5646,1.5541],[109.5671,1.5859],[109.5744,1.603],[109.5736,1.6263],[109.5629,1.6376],[109.5594,1.6525],[109.5643,1.6622],[109.5956,1.6941],[109.6681,1.7201]]]}},{"type":"Feature","properties":{"id":"jawai/sarang-burung-danau","name":"Sarang Burung Danau","type":"desa","parentId":"jawai","code":"6101050020"},"geometry":{"type":"Polygon","coordinates":[[[109.0734,1.5135],[109.0594,1.5248],[109.0547,1.5184],[109.0415,1.485],[109.0368,1.4562],[109.106,1.4598],[109.0924,1.4691],[109.0734,1.5135]]]}},{"type":"Feature","properties":{"id":"jawai/sarang-burung-kolam","name":"Sarang Burung Kolam","type":"desa","parentId":"jawai","code":"6101050018"},"geometry":{"type":"Polygon","coordinates":[[[109.1101,1.4295],[109.0461,1.4343],[109.037,1.4283],[109.037,1.4172],[109.0775,1.4231],[109.1176,1.4169],[109.1101,1.4295]]]}},{"type":"Feature","properties":{"id":"jawai/sarang-burung-kuala","name":"Sarang Burung Kuala","type":"desa","parentId":"jawai","code":"6101050016"},"geometry":{"type":"Polygon","coordinates":[[[109.1219,1.3809],[109.1096,1.3918],[109.0862,1.4004],[109.04,1.3955],[109.042,1.3811],[109.073,1.3749],[109.1283,1.3713],[109.1219,1.3809]]]}},{"type":"Feature","properties":{"id":"jawai/sarang-burung-usrat","name":"Sarang Burung Usrat","type":"desa","parentId":"jawai","code":"6101050017"},"geometry":{"type":"Polygon","coordinates":[[[109.0382,1.4172],[109.04,1.3955],[109.0862,1.4004],[109.1096,1.3918],[109.1219,1.3809],[109.1176,1.4169],[109.0775,1.4231],[109.0382,1.4172]]]}},{"type":"Feature","properties":{"id":"tekarang/sari-makmur","name":"Sari Makmur","type":"desa","parentId":"tekarang","code":"6101031003"},"geometry":{"type":"Polygon","coordinates":[[[109.1035,1.2867],[109.0882,1.3144],[109.0762,1.3046],[109.0954,1.2803],[109.1035,1.2867]]]}},{"type":"Feature","properties":{"id":"jawai-selatan/sarilaba-a","name":"Sarilaba A","type":"desa","parentId":"jawai-selatan","code":"6101051007"},"geometry":{"type":"Polygon","coordinates":[[[109.0378,1.279],[109.033,1.282],[109.0311,1.2788],[109.0221,1.2501],[109.0366,1.2503],[109.0378,1.279]]]}},{"type":"Feature","properties":{"id":"jawai-selatan/sarilaba-b","name":"Sarilaba B","type":"desa","parentId":"jawai-selatan","code":"6101051003"},"geometry":{"type":"Polygon","coordinates":[[[109.0365,1.2503],[109.0221,1.2501],[109.0189,1.2349],[109.0113,1.2263],[109.0128,1.2078],[109.0404,1.204],[109.0425,1.2235],[109.0365,1.2503]]]}},{"type":"Feature","properties":{"id":"teluk-keramat/sayang-sedayu","name":"Sayang Sedayu","type":"desa","parentId":"teluk-keramat","code":"6101060025"},"geometry":{"type":"Polygon","coordinates":[[[109.255,1.5313],[109.232,1.5314],[109.2276,1.5258],[109.2294,1.5206],[109.2391,1.517],[109.2554,1.5236],[109.255,1.5313]]]}},{"type":"Feature","properties":{"id":"teluk-keramat/sebagu","name":"Sebagu","type":"desa","parentId":"teluk-keramat","code":"6101060013"},"geometry":{"type":"Polygon","coordinates":[[[109.2861,1.4848],[109.2672,1.4876],[109.2727,1.4506],[109.2989,1.4653],[109.2985,1.48],[109.2861,1.4848]]]}},{"type":"Feature","properties":{"id":"sebawi/sebangun","name":"Sebangun","type":"desa","parentId":"sebawi","code":"6101042004"},"geometry":{"type":"Polygon","coordinates":[[[109.1915,1.3098],[109.1782,1.3119],[109.166,1.2935],[109.179,1.2852],[109.1782,1.2738],[109.1959,1.2823],[109.1948,1.2872],[109.1872,1.2859],[109.1927,1.2971],[109.1915,1.3098]]]}},{"type":"Feature","properties":{"id":"pemangkat/sebatuan","name":"Sebatuan","type":"desa","parentId":"pemangkat","code":"6101020016"},"geometry":{"type":"Polygon","coordinates":[[[108.973,1.1475],[108.9092,1.1499],[108.9287,1.1115],[108.9361,1.1204],[108.947,1.1051],[108.9502,1.1136],[108.9662,1.1193],[108.9687,1.1298],[108.9735,1.1291],[108.973,1.1475]]]}},{"type":"Feature","properties":{"id":"sebawi/sebawi","name":"Sebawi","type":"desa","parentId":"sebawi","code":"6101042001"},"geometry":{"type":"Polygon","coordinates":[[[109.1927,1.2971],[109.1876,1.2853],[109.1956,1.2866],[109.1955,1.2818],[109.2399,1.2342],[109.268,1.2205],[109.2636,1.2365],[109.2479,1.2619],[109.2532,1.2738],[109.2491,1.2801],[109.2302,1.2933],[109.2137,1.2873],[109.2077,1.2961],[109.1999,1.2913],[109.1927,1.2971]]]}},{"type":"Feature","properties":{"id":"sambas/sebayan","name":"Sebayan","type":"desa","parentId":"sambas","code":"6101040034"},"geometry":{"type":"Polygon","coordinates":[[[109.3503,1.3988],[109.3454,1.4138],[109.3311,1.4075],[109.3439,1.3694],[109.352,1.3571],[109.3647,1.3589],[109.3503,1.3988]]]}},{"type":"Feature","properties":{"id":"tebas/seberkat","name":"Seberkat","type":"desa","parentId":"tebas","code":"6101030017"},"geometry":{"type":"Polygon","coordinates":[[[109.2075,1.2329],[109.1883,1.2449],[109.1855,1.2252],[109.1811,1.2165],[109.1761,1.2164],[109.1843,1.2063],[109.2053,1.1926],[109.22,1.1963],[109.225,1.2023],[109.2445,1.198],[109.2354,1.221],[109.2075,1.2329]]]}},{"type":"Feature","properties":{"id":"paloh/sebubus","name":"Sebubus","type":"desa","parentId":"paloh","code":"6101090006"},"geometry":{"type":"Polygon","coordinates":[[[109.5542,1.8563],[109.4796,1.9237],[109.4504,1.9413],[109.4313,1.9446],[109.4274,1.9501],[109.3376,1.9433],[109.3222,1.9265],[109.3434,1.8758],[109.3346,1.8575],[109.34,1.8624],[109.3373,1.8332],[109.2873,1.7737],[109.349,1.7577],[109.3701,1.7439],[109.4608,1.7345],[109.4573,1.7763],[109.4672,1.8055],[109.4742,1.8118],[109.502,1.8133],[109.5421,1.8043],[109.559,1.8073],[109.5858,1.8203],[109.5762,1.8467],[109.5732,1.8427],[109.5637,1.8433],[109.5542,1.8563]]]}},{"type":"Feature","properties":{"id":"sajingan-besar/sebunga","name":"Sebunga'","type":"desa","parentId":"sajingan-besar","code":"6101080001"},"geometry":{"type":"Polygon","coordinates":[[[109.7503,1.5375],[109.7323,1.5583],[109.7167,1.5683],[109.707,1.5864],[109.6968,1.5882],[109.6885,1.6098],[109.6659,1.614],[109.6617,1.6206],[109.6503,1.5974],[109.6535,1.5911],[109.6491,1.5728],[109.607,1.5403],[109.6065,1.5198],[109.6003,1.5143],[109.607,1.4913],[109.6024,1.4858],[109.5864,1.4839],[109.5857,1.4763],[109.57,1.4685],[109.5713,1.4599],[109.5802,1.449],[109.6087,1.431],[109.6393,1.4435],[109.6525,1.4359],[109.6584,1.438],[109.6794,1.4498],[109.6844,1.4622],[109.701,1.4672],[109.7042,1.4759],[109.7197,1.4768],[109.7441,1.5057],[109.7501,1.5204],[109.7503,1.5375]]]}},{"type":"Feature","properties":{"id":"semparuk/seburing","name":"Seburing","type":"desa","parentId":"semparuk","code":"6101021001"},"geometry":{"type":"Polygon","coordinates":[[[109.0683,1.1566],[109.0559,1.1479],[109.0518,1.1514],[109.0406,1.1456],[109.0671,1.1086],[109.0765,1.1057],[109.0872,1.1182],[109.0949,1.1205],[109.0683,1.1566]]]}},{"type":"Feature","properties":{"id":"tebas/segarau-parit","name":"Segarau Parit","type":"desa","parentId":"tebas","code":"6101030023"},"geometry":{"type":"Polygon","coordinates":[[[109.1162,1.2361],[109.0976,1.2608],[109.0785,1.253],[109.0973,1.2233],[109.1162,1.2361]]]}},{"type":"Feature","properties":{"id":"tebas/segedong","name":"Segedong","type":"desa","parentId":"tebas","code":"6101030008"},"geometry":{"type":"Polygon","coordinates":[[[109.1093,1.1704],[109.108,1.1873],[109.0849,1.2172],[109.0818,1.21],[109.0852,1.1973],[109.1013,1.1694],[109.1093,1.1704]]]}},{"type":"Feature","properties":{"id":"sajingan-besar/sei-bening","name":"Sei Bening","type":"desa","parentId":"sajingan-besar","code":"6101080005"},"geometry":{"type":"Polygon","coordinates":[[[109.6832,1.7857],[109.6604,1.7981],[109.6429,1.7971],[109.6354,1.8054],[109.63,1.8001],[109.6228,1.8033],[109.6125,1.7963],[109.6005,1.798],[109.5863,1.7919],[109.5792,1.805],[109.5865,1.8126],[109.5858,1.8203],[109.559,1.8073],[109.5421,1.8043],[109.502,1.8133],[109.4773,1.8133],[109.4672,1.8055],[109.4583,1.7812],[109.457,1.7454],[109.4608,1.7345],[109.4996,1.7161],[109.5157,1.7163],[109.549,1.7263],[109.5895,1.7235],[109.6125,1.7432],[109.6661,1.7666],[109.6832,1.7857]]]}},{"type":"Feature","properties":{"id":"subah/sei-deden","name":"Sei Deden","type":"desa","parentId":"subah","code":"6101041006"},"geometry":{"type":"Polygon","coordinates":[[[109.4974,1.3429],[109.4834,1.3478],[109.4779,1.363],[109.4625,1.3456],[109.4481,1.3371],[109.4656,1.2972],[109.4726,1.2465],[109.5421,1.2548],[109.5522,1.2655],[109.5202,1.3035],[109.5129,1.3327],[109.4974,1.3429]]]}},{"type":"Feature","properties":{"id":"jawai/sei-nilam","name":"Sei Nilam","type":"desa","parentId":"jawai","code":"6101050019"},"geometry":{"type":"Polygon","coordinates":[[[109.106,1.4598],[109.0368,1.4562],[109.0368,1.4286],[109.0565,1.4364],[109.1068,1.4369],[109.106,1.4598]]]}},{"type":"Feature","properties":{"id":"jawai/sei-nyirih","name":"Sei Nyirih","type":"desa","parentId":"jawai","code":"6101050012"},"geometry":{"type":"Polygon","coordinates":[[[109.0459,1.3486],[109.042,1.3507],[109.0379,1.3344],[109.0558,1.3243],[109.0883,1.3144],[109.1095,1.3285],[109.0459,1.3486]]]}},{"type":"Feature","properties":{"id":"sambas/sei-rambah","name":"Sei Rambah","type":"desa","parentId":"sambas","code":"6101040019"},"geometry":{"type":"Polygon","coordinates":[[[109.3199,1.285],[109.2986,1.3186],[109.2743,1.3366],[109.2616,1.3297],[109.2564,1.3169],[109.3263,1.2556],[109.3445,1.2429],[109.3521,1.2487],[109.3327,1.2654],[109.3199,1.285]]]}},{"type":"Feature","properties":{"id":"subah/sei-sapak","name":"Sei Sapak","type":"desa","parentId":"subah","code":"6101041003"},"geometry":{"type":"Polygon","coordinates":[[[109.5374,1.1937],[109.4786,1.1887],[109.4792,1.1544],[109.5196,1.1559],[109.5374,1.1937]]]}},{"type":"Feature","properties":{"id":"tebas/sejiram","name":"Sejiram","type":"desa","parentId":"tebas","code":"6101030016"},"geometry":{"type":"Polygon","coordinates":[[[109.1854,1.225],[109.1617,1.2269],[109.1769,1.2084],[109.18,1.212],[109.1763,1.2169],[109.1811,1.2165],[109.1854,1.225]]]}},{"type":"Feature","properties":{"id":"sejangkung/sekuduk","name":"Sekuduk","type":"desa","parentId":"sejangkung","code":"6101070009"},"geometry":{"type":"Polygon","coordinates":[[[109.3198,1.4624],[109.2989,1.4653],[109.2729,1.4507],[109.2965,1.4229],[109.3252,1.4389],[109.3198,1.4624]]]}},{"type":"Feature","properties":{"id":"teluk-keramat/sekura","name":"Sekura","type":"desa","parentId":"teluk-keramat","code":"6101060010"},"geometry":{"type":"Polygon","coordinates":[[[109.2175,1.4926],[109.197,1.491],[109.1522,1.4635],[109.1116,1.4558],[109.1035,1.4508],[109.1062,1.4384],[109.1411,1.4413],[109.1924,1.4613],[109.2165,1.4568],[109.2298,1.4594],[109.2191,1.4754],[109.2235,1.4852],[109.2175,1.4926]]]}},{"type":"Feature","properties":{"id":"selakau-timur/selakau-tua","name":"Selakau Tua","type":"desa","parentId":"selakau-timur","code":"6101011003"},"geometry":{"type":"Polygon","coordinates":[[[109.0848,1.0009],[109.0869,1.0456],[109.1128,1.07],[109.119,1.0987],[109.1009,1.0913],[109.0812,1.0925],[109.0765,1.0831],[109.0645,1.0783],[109.0484,1.0487],[109.0421,1.0472],[109.0386,1.0159],[109.0564,1.0126],[109.0603,1.0044],[109.0848,1.0009]]]}},{"type":"Feature","properties":{"id":"sejangkung/semanga","name":"Semanga","type":"desa","parentId":"sejangkung","code":"6101070002"},"geometry":{"type":"Polygon","coordinates":[[[109.6433,1.5667],[109.6363,1.5713],[109.5991,1.5739],[109.5844,1.5806],[109.5667,1.5797],[109.5646,1.5541],[109.5466,1.5263],[109.5049,1.5202],[109.4897,1.5257],[109.4711,1.5226],[109.4703,1.4277],[109.4645,1.426],[109.4692,1.4185],[109.4546,1.4086],[109.4622,1.4027],[109.4848,1.3465],[109.4974,1.3429],[109.5045,1.3505],[109.5307,1.3582],[109.5408,1.3663],[109.5546,1.3942],[109.5565,1.4204],[109.5714,1.4598],[109.57,1.4685],[109.5857,1.4763],[109.5908,1.4869],[109.6054,1.489],[109.6003,1.5143],[109.6065,1.5198],[109.607,1.5403],[109.6433,1.5667]]]}},{"type":"Feature","properties":{"id":"sambas/semangau","name":"Semangau","type":"desa","parentId":"sambas","code":"6101040040"},"geometry":{"type":"Polygon","coordinates":[[[109.3445,1.2429],[109.2564,1.3169],[109.2463,1.3058],[109.2521,1.294],[109.3092,1.2522],[109.3368,1.2372],[109.3445,1.2429]]]}},{"type":"Feature","properties":{"id":"sebawi/semanjang","name":"Semanjang","type":"desa","parentId":"sebawi","code":"6101042007"},"geometry":{"type":"Polygon","coordinates":[[[109.3368,1.2372],[109.2572,1.29],[109.2466,1.3054],[109.2302,1.2933],[109.2528,1.2752],[109.2479,1.2619],[109.2746,1.211],[109.2927,1.216],[109.3038,1.2129],[109.3368,1.2372]]]}},{"type":"Feature","properties":{"id":"tangaran/semata","name":"Semata","type":"desa","parentId":"tangaran","code":"6101062001"},"geometry":{"type":"Polygon","coordinates":[[[109.1906,1.5302],[109.1789,1.5341],[109.17,1.5242],[109.1446,1.5123],[109.0734,1.5135],[109.0871,1.4798],[109.0955,1.4808],[109.1379,1.4899],[109.1557,1.505],[109.17,1.5106],[109.1888,1.5095],[109.1975,1.5138],[109.1906,1.5302]]]}},{"type":"Feature","properties":{"id":"selakau/semelagi-besar","name":"Semelagi Besar","type":"desa","parentId":"selakau","code":"6101010001"},"geometry":{"type":"Polygon","coordinates":[[[109.0304,0.9902],[109.0234,1.0152],[108.9777,1.0062],[108.9787,0.9892],[109.0304,0.9902]]]}},{"type":"Feature","properties":{"id":"tekarang/sempadian","name":"Sempadian","type":"desa","parentId":"tekarang","code":"6101031005"},"geometry":{"type":"Polygon","coordinates":[[[109.1096,1.3285],[109.0882,1.3144],[109.1015,1.2959],[109.0979,1.2936],[109.1184,1.2726],[109.1343,1.2776],[109.1471,1.2891],[109.1163,1.3032],[109.1254,1.32],[109.1096,1.3285]]]}},{"type":"Feature","properties":{"id":"tebas/sempalai","name":"Sempalai","type":"desa","parentId":"tebas","code":"6101030018"},"geometry":{"type":"Polygon","coordinates":[[[109.1883,1.2449],[109.1504,1.2624],[109.1468,1.254],[109.1703,1.2413],[109.1876,1.2384],[109.1883,1.2449]]]}},{"type":"Feature","properties":{"id":"semparuk/semparuk","name":"Semparuk","type":"desa","parentId":"semparuk","code":"6101021004"},"geometry":{"type":"Polygon","coordinates":[[[109.1015,1.1692],[109.0852,1.1973],[109.0817,1.2138],[109.0713,1.2052],[109.0541,1.203],[109.0545,1.1479],[109.0697,1.1617],[109.1015,1.1692]]]}},{"type":"Feature","properties":{"id":"sebawi/sempelai-sebedang","name":"Sempelai Sebedang","type":"desa","parentId":"sebawi","code":"6101042002"},"geometry":{"type":"Polygon","coordinates":[[[109.2618,1.2004],[109.2375,1.2266],[109.2059,1.2431],[109.1842,1.2655],[109.1562,1.2749],[109.1504,1.2624],[109.2354,1.221],[109.2467,1.1946],[109.254,1.19],[109.2618,1.2004]]]}},{"type":"Feature","properties":{"id":"jawai-selatan/semperiuk-a","name":"Semperiuk A","type":"desa","parentId":"jawai-selatan","code":"6101051006"},"geometry":{"type":"Polygon","coordinates":[[[109.0626,1.2802],[109.0401,1.2829],[109.0366,1.2503],[109.0722,1.2634],[109.0626,1.2802]]]}},{"type":"Feature","properties":{"id":"jawai-selatan/semperiuk-b","name":"Semperiuk B","type":"desa","parentId":"jawai-selatan","code":"6101051004"},"geometry":{"type":"Polygon","coordinates":[[[109.0642,1.2038],[109.0625,1.2267],[109.0559,1.241],[109.0472,1.2528],[109.0365,1.2503],[109.0425,1.2235],[109.0404,1.204],[109.0642,1.2038]]]}},{"type":"Feature","properties":{"id":"subah/sempurna","name":"Sempurna","type":"desa","parentId":"subah","code":"6101041004"},"geometry":{"type":"Polygon","coordinates":[[[109.6047,1.2503],[109.5978,1.2537],[109.5853,1.2457],[109.563,1.246],[109.5556,1.2486],[109.5502,1.2643],[109.5407,1.2519],[109.5439,1.2378],[109.5331,1.2126],[109.536,1.1937],[109.5519,1.2003],[109.589,1.202],[109.5999,1.2169],[109.6047,1.2503]]]}},{"type":"Feature","properties":{"id":"sejangkung/sendoyan","name":"Sendoyan","type":"desa","parentId":"sejangkung","code":"6101070005"},"geometry":{"type":"Polygon","coordinates":[[[109.4273,1.4753],[109.3855,1.4756],[109.3807,1.4159],[109.4248,1.4124],[109.4307,1.4368],[109.4261,1.4422],[109.4325,1.4452],[109.4282,1.4485],[109.4317,1.451],[109.4273,1.4753]]]}},{"type":"Feature","properties":{"id":"teluk-keramat/sengawang","name":"Sengawang","type":"desa","parentId":"teluk-keramat","code":"6101060002"},"geometry":{"type":"Polygon","coordinates":[[[109.1888,1.3261],[109.1586,1.3528],[109.1347,1.3566],[109.1379,1.3406],[109.1517,1.3356],[109.1797,1.3143],[109.1888,1.3261]]]}},{"type":"Feature","properties":{"id":"jawai/sentebang","name":"Sentebang","type":"desa","parentId":"jawai","code":"6101050011"},"geometry":{"type":"Polygon","coordinates":[[[109.0883,1.3144],[109.0379,1.3344],[109.0286,1.3188],[109.0699,1.2997],[109.0883,1.3144]]]}},{"type":"Feature","properties":{"id":"sejangkung/senujuh","name":"Senujuh","type":"desa","parentId":"sejangkung","code":"6101070004"},"geometry":{"type":"Polygon","coordinates":[[[109.4281,1.5093],[109.4109,1.5077],[109.3865,1.4955],[109.3855,1.4756],[109.4273,1.4753],[109.4281,1.5093]]]}},{"type":"Feature","properties":{"id":"semparuk/sepadu","name":"Sepadu","type":"desa","parentId":"semparuk","code":"6101021002"},"geometry":{"type":"Polygon","coordinates":[[[109.1158,1.1099],[109.1109,1.1265],[109.0872,1.1182],[109.0764,1.1059],[109.0812,1.0924],[109.0982,1.091],[109.1189,1.0987],[109.1158,1.1099]]]}},{"type":"Feature","properties":{"id":"teluk-keramat/sepadu","name":"Sepadu","type":"desa","parentId":"teluk-keramat","code":"6101060011"},"geometry":{"type":"Polygon","coordinates":[[[109.2707,1.4581],[109.2464,1.4638],[109.2356,1.4778],[109.2234,1.4733],[109.231,1.4551],[109.2276,1.4368],[109.2308,1.4266],[109.256,1.431],[109.2641,1.4452],[109.2727,1.4506],[109.2707,1.4581]]]}},{"type":"Feature","properties":{"id":"sejangkung/sepantai","name":"Sepantai","type":"desa","parentId":"sejangkung","code":"6101070001"},"geometry":{"type":"Polygon","coordinates":[[[109.6087,1.431],[109.5802,1.449],[109.5714,1.4598],[109.5565,1.4204],[109.5546,1.3942],[109.5408,1.3663],[109.5307,1.3582],[109.4979,1.3461],[109.5137,1.3315],[109.5202,1.3035],[109.5507,1.2704],[109.5542,1.2506],[109.5658,1.2453],[109.5853,1.2457],[109.5978,1.2537],[109.6047,1.2503],[109.61,1.2604],[109.6072,1.286],[109.6262,1.3262],[109.6188,1.3553],[109.611,1.3678],[109.5754,1.3772],[109.5796,1.3837],[109.6038,1.3909],[109.6094,1.3888],[109.6014,1.4047],[109.6064,1.409],[109.6031,1.4168],[109.6087,1.431]]]}},{"type":"Feature","properties":{"id":"semparuk/sepinggan","name":"Sepinggan","type":"desa","parentId":"semparuk","code":"6101021003"},"geometry":{"type":"Polygon","coordinates":[[[109.1013,1.1692],[109.0899,1.1694],[109.0813,1.1617],[109.0689,1.1608],[109.0713,1.1513],[109.0948,1.1206],[109.1109,1.1265],[109.1013,1.1692]]]}},{"type":"Feature","properties":{"id":"sebawi/sepuk-tanjung","name":"Sepuk Tanjung","type":"desa","parentId":"sebawi","code":"6101042003"},"geometry":{"type":"Polygon","coordinates":[[[109.1955,1.2818],[109.1782,1.2738],[109.179,1.2852],[109.166,1.2935],[109.1562,1.2749],[109.1842,1.2655],[109.2059,1.2431],[109.2375,1.2266],[109.2618,1.2004],[109.2663,1.2141],[109.2746,1.211],[109.268,1.2205],[109.2399,1.2342],[109.1955,1.2818]]]}},{"type":"Feature","properties":{"id":"selakau-timur/seranggam","name":"Seranggam","type":"desa","parentId":"selakau-timur","code":"6101011002"},"geometry":{"type":"Polygon","coordinates":[[[109.0812,1.0925],[109.065,1.0969],[109.0594,1.0834],[109.0437,1.0699],[109.0412,1.0474],[109.0484,1.0487],[109.0645,1.0783],[109.0765,1.0831],[109.0812,1.0925]]]}},{"type":"Feature","properties":{"id":"tebas/seret-ayon","name":"Seret Ayon","type":"desa","parentId":"tebas","code":"6101030001"},"geometry":{"type":"Polygon","coordinates":[[[109.4076,1.0525],[109.3915,1.0645],[109.376,1.0689],[109.3723,1.1099],[109.3644,1.117],[109.3492,1.1153],[109.3325,1.1035],[109.2803,1.0977],[109.2506,1.0868],[109.2421,1.068],[109.2405,1.0415],[109.2463,1.0297],[109.252,1.036],[109.2744,1.0423],[109.3397,1.0468],[109.353,1.0418],[109.3693,1.0471],[109.3888,1.0442],[109.4076,1.0525]]]}},{"type":"Feature","properties":{"id":"tebas/serindang","name":"Serindang","type":"desa","parentId":"tebas","code":"6101030005"},"geometry":{"type":"Polygon","coordinates":[[[109.1313,1.1724],[109.1265,1.1657],[109.1259,1.1344],[109.138,1.113],[109.1444,1.1229],[109.1364,1.1351],[109.1376,1.1717],[109.1313,1.1724]]]}},{"type":"Feature","properties":{"id":"salatiga/serumpun","name":"Serumpun","type":"desa","parentId":"salatiga","code":"6101022004"},"geometry":{"type":"Polygon","coordinates":[[[109.0435,1.1154],[109.0392,1.1117],[109.0276,1.1134],[109.0287,1.1051],[109.0812,1.0924],[109.0764,1.1058],[109.0435,1.1154]]]}},{"type":"Feature","properties":{"id":"tebas/serumpun-buluh","name":"Serumpun Buluh","type":"desa","parentId":"tebas","code":"6101030012"},"geometry":{"type":"Polygon","coordinates":[[[109.1419,1.2021],[109.1356,1.2093],[109.1281,1.2041],[109.1339,1.1901],[109.1313,1.1724],[109.1406,1.171],[109.1419,1.2021]]]}},{"type":"Feature","properties":{"id":"salatiga/serunai","name":"Serunai","type":"desa","parentId":"salatiga","code":"6101022005"},"geometry":{"type":"Polygon","coordinates":[[[109.0671,1.1086],[109.0406,1.1456],[109.0403,1.1401],[109.0347,1.1435],[109.0435,1.1154],[109.0671,1.1086]]]}},{"type":"Feature","properties":{"id":"sejangkung/setalik","name":"Setalik","type":"desa","parentId":"sejangkung","code":"6101070010"},"geometry":{"type":"Polygon","coordinates":[[[109.3237,1.4054],[109.3129,1.4339],[109.2962,1.4232],[109.3069,1.4026],[109.3237,1.4054]]]}},{"type":"Feature","properties":{"id":"galing/sijang","name":"Sijang","type":"desa","parentId":"galing","code":"6101061009"},"geometry":{"type":"Polygon","coordinates":[[[109.4661,1.5231],[109.4536,1.5398],[109.4506,1.5806],[109.4135,1.5701],[109.3907,1.5763],[109.3956,1.5581],[109.4446,1.5184],[109.4489,1.5153],[109.4661,1.5231]]]}},{"type":"Feature","properties":{"id":"tangaran/simpang-empat","name":"Simpang Empat","type":"desa","parentId":"tangaran","code":"6101062004"},"geometry":{"type":"Polygon","coordinates":[[[109.1735,1.5652],[109.1358,1.5599],[109.1122,1.5739],[109.0594,1.5248],[109.0831,1.5112],[109.0965,1.5149],[109.147,1.5128],[109.1732,1.5262],[109.1789,1.5341],[109.1735,1.5652]]]}},{"type":"Feature","properties":{"id":"semparuk/singaraya","name":"Singaraya","type":"desa","parentId":"semparuk","code":"6101021005"},"geometry":{"type":"Polygon","coordinates":[[[109.0404,1.204],[109.0322,1.205],[109.0338,1.1522],[109.0399,1.14],[109.0398,1.1451],[109.0521,1.1515],[109.0541,1.203],[109.0404,1.204]]]}},{"type":"Feature","properties":{"id":"jawai-selatan/suah-api","name":"Suah Api","type":"desa","parentId":"jawai-selatan","code":"6101051009"},"geometry":{"type":"Polygon","coordinates":[[[109.0639,1.2943],[109.048,1.2973],[109.033,1.282],[109.0626,1.2802],[109.0603,1.2888],[109.0639,1.2943]]]}},{"type":"Feature","properties":{"id":"sejangkung/sulung","name":"Sulung","type":"desa","parentId":"sejangkung","code":"6101070012"},"geometry":{"type":"Polygon","coordinates":[[[109.2962,1.4232],[109.2729,1.4507],[109.2641,1.4452],[109.2553,1.427],[109.2784,1.4085],[109.2962,1.4232]]]}},{"type":"Feature","properties":{"id":"sambas/sumber-harapan","name":"Sumber Harapan","type":"desa","parentId":"sambas","code":"6101040035"},"geometry":{"type":"Polygon","coordinates":[[[109.3626,1.395],[109.3503,1.3988],[109.3652,1.3591],[109.3764,1.363],[109.3626,1.395]]]}},{"type":"Feature","properties":{"id":"teluk-keramat/sungai-baru","name":"Sungai Baru","type":"desa","parentId":"teluk-keramat","code":"6101060003"},"geometry":{"type":"Polygon","coordinates":[[[109.2003,1.3426],[109.1662,1.3661],[109.1219,1.3809],[109.1347,1.3566],[109.1586,1.3528],[109.1888,1.3261],[109.2003,1.3426]]]}},{"type":"Feature","properties":{"id":"selakau/sungai-daun","name":"Sungai Daun","type":"desa","parentId":"selakau","code":"6101010002"},"geometry":{"type":"Polygon","coordinates":[[[109.0386,1.0159],[109.0388,1.0277],[108.9884,1.0262],[108.9758,1.0199],[108.9777,1.0062],[109.0386,1.0159]]]}},{"type":"Feature","properties":{"id":"tebas/sungai-kelambu","name":"Sungai Kelambu","type":"desa","parentId":"tebas","code":"6101030011"},"geometry":{"type":"Polygon","coordinates":[[[109.1313,1.1724],[109.1339,1.1901],[109.1281,1.2041],[109.1152,1.1963],[109.1223,1.1726],[109.1313,1.1724]]]}},{"type":"Feature","properties":{"id":"teluk-keramat/sungai-kumpai","name":"Sungai Kumpai","type":"desa","parentId":"teluk-keramat","code":"6101060009"},"geometry":{"type":"Polygon","coordinates":[[[109.2298,1.4594],[109.2165,1.4568],[109.1924,1.4613],[109.1411,1.4413],[109.1062,1.4384],[109.1168,1.4204],[109.1768,1.4292],[109.2087,1.4269],[109.2211,1.4206],[109.2307,1.4268],[109.2298,1.4594]]]}},{"type":"Feature","properties":{"id":"selakau/sungai-nyirih","name":"Sungai Nyirih","type":"desa","parentId":"selakau","code":"6101010005"},"geometry":{"type":"Polygon","coordinates":[[[108.9672,1.0652],[108.9572,1.062],[108.9689,1.0393],[108.9981,1.0372],[108.992,1.056],[108.9856,1.0536],[108.9672,1.0652]]]}},{"type":"Feature","properties":{"id":"galing/sungai-palah","name":"Sungai Palah","type":"desa","parentId":"galing","code":"6101061002"},"geometry":{"type":"Polygon","coordinates":[[[109.3777,1.5971],[109.3651,1.5796],[109.3625,1.5429],[109.3737,1.5538],[109.385,1.5376],[109.3865,1.5259],[109.4033,1.5255],[109.4095,1.507],[109.4489,1.5153],[109.3956,1.5581],[109.3906,1.577],[109.3777,1.5971]]]}},{"type":"Feature","properties":{"id":"selakau/sungai-rusa","name":"Sungai Rusa","type":"desa","parentId":"selakau","code":"6101010003"},"geometry":{"type":"Polygon","coordinates":[[[108.9981,1.0372],[108.9748,1.0397],[108.9689,1.0393],[108.9688,1.035],[108.9758,1.0199],[108.9884,1.0262],[109.0199,1.0264],[109.0188,1.0325],[109.0107,1.0372],[108.9981,1.0372]]]}},{"type":"Feature","properties":{"id":"teluk-keramat/sungai-serabek","name":"Sungai Serabek","type":"desa","parentId":"teluk-keramat","code":"6101060022"},"geometry":{"type":"Polygon","coordinates":[[[109.2414,1.4844],[109.2392,1.4903],[109.2457,1.4967],[109.2555,1.5236],[109.2369,1.5168],[109.2303,1.4967],[109.2177,1.4931],[109.2235,1.4852],[109.2209,1.4733],[109.236,1.478],[109.2414,1.4844]]]}},{"type":"Feature","properties":{"id":"salatiga/sungai-toman","name":"Sungai Toman","type":"desa","parentId":"salatiga","code":"6101022003"},"geometry":{"type":"Polygon","coordinates":[[[109.0342,1.1358],[109.0249,1.1445],[109.021,1.1401],[109.0276,1.1134],[109.0392,1.1117],[109.0435,1.1154],[109.0342,1.1358]]]}},{"type":"Feature","properties":{"id":"teluk-keramat/tambatan","name":"Tambatan","type":"desa","parentId":"teluk-keramat","code":"6101060007"},"geometry":{"type":"Polygon","coordinates":[[[109.2783,1.4086],[109.2563,1.4236],[109.256,1.431],[109.2308,1.4266],[109.2398,1.4018],[109.2783,1.4086]]]}},{"type":"Feature","properties":{"id":"paloh/tanah-hitam","name":"Tanah Hitam","type":"desa","parentId":"paloh","code":"6101090003"},"geometry":{"type":"Polygon","coordinates":[[[109.2735,1.623],[109.262,1.6427],[109.2438,1.6514],[109.2185,1.6316],[109.2135,1.6042],[109.2404,1.6076],[109.2735,1.623]]]}},{"type":"Feature","properties":{"id":"tangaran/tangaran","name":"Tangaran","type":"desa","parentId":"tangaran","code":"6101062002"},"geometry":{"type":"Polygon","coordinates":[[[109.223,1.5314],[109.2098,1.5363],[109.1906,1.5302],[109.1983,1.5135],[109.2293,1.5208],[109.2275,1.5259],[109.2216,1.5247],[109.223,1.5314]]]}},{"type":"Feature","properties":{"id":"sambas/tanjung-bugis","name":"Tanjung Bugis","type":"desa","parentId":"sambas","code":"6101040027"},"geometry":{"type":"Polygon","coordinates":[[[109.3064,1.345],[109.3002,1.3398],[109.2944,1.3469],[109.2908,1.3382],[109.3222,1.3134],[109.3179,1.3289],[109.3064,1.345]]]}},{"type":"Feature","properties":{"id":"teluk-keramat/tanjung-keracut","name":"Tanjung Keracut","type":"desa","parentId":"teluk-keramat","code":"6101060012"},"geometry":{"type":"Polygon","coordinates":[[[109.2707,1.4581],[109.2672,1.4876],[109.2449,1.4868],[109.2356,1.4778],[109.2464,1.4638],[109.2707,1.4581]]]}},{"type":"Feature","properties":{"id":"sambas/tanjung-mekar","name":"Tanjung Mekar","type":"desa","parentId":"sambas","code":"6101040030"},"geometry":{"type":"Polygon","coordinates":[[[109.3437,1.378],[109.3311,1.4075],[109.3071,1.4027],[109.3235,1.3754],[109.3437,1.378]]]}},{"type":"Feature","properties":{"id":"tebas/tebas-kuala","name":"Tebas Kuala","type":"desa","parentId":"tebas","code":"6101030021"},"geometry":{"type":"Polygon","coordinates":[[[109.1398,1.2441],[109.1265,1.2392],[109.1381,1.2211],[109.1502,1.2332],[109.1398,1.2441]]]}},{"type":"Feature","properties":{"id":"tebas/tebas-sungai","name":"Tebas Sungai","type":"desa","parentId":"tebas","code":"6101030015"},"geometry":{"type":"Polygon","coordinates":[[[109.16,1.2106],[109.1513,1.2191],[109.1556,1.2259],[109.1502,1.2332],[109.1382,1.2212],[109.1461,1.2109],[109.1732,1.1938],[109.1892,1.1716],[109.2164,1.1604],[109.2182,1.1959],[109.2053,1.1926],[109.1798,1.2109],[109.16,1.2106]]]}},{"type":"Feature","properties":{"id":"sebawi/tebing-batu","name":"Tebing Batu","type":"desa","parentId":"sebawi","code":"6101042006"},"geometry":{"type":"Polygon","coordinates":[[[109.2616,1.3297],[109.2499,1.3418],[109.1915,1.3098],[109.1927,1.2971],[109.1999,1.2913],[109.2077,1.2961],[109.2128,1.2874],[109.2289,1.2923],[109.2482,1.3063],[109.2616,1.3297]]]}},{"type":"Feature","properties":{"id":"subah/tebuah-elok","name":"Tebuah Elok","type":"desa","parentId":"subah","code":"6101041001"},"geometry":{"type":"Polygon","coordinates":[[[109.5005,1.0909],[109.5159,1.1199],[109.4799,1.1189],[109.4748,1.0958],[109.4367,1.0471],[109.4385,1.0359],[109.4692,1.0203],[109.4831,1.0635],[109.5005,1.0909]]]}},{"type":"Feature","properties":{"id":"tekarang/tekarang","name":"Tekarang","type":"desa","parentId":"tekarang","code":"6101031004"},"geometry":{"type":"Polygon","coordinates":[[[109.1471,1.2891],[109.1343,1.2776],[109.1184,1.2726],[109.1463,1.2528],[109.1609,1.2839],[109.1471,1.2891]]]}},{"type":"Feature","properties":{"id":"teluk-keramat/teluk-kaseh","name":"Teluk Kaseh","type":"desa","parentId":"teluk-keramat","code":"6101060001"},"geometry":{"type":"Polygon","coordinates":[[[109.1797,1.3143],[109.1517,1.3356],[109.1379,1.3406],[109.1434,1.3235],[109.1678,1.2969],[109.1797,1.3143]]]}},{"type":"Feature","properties":{"id":"teluk-keramat/teluk-kembang","name":"Teluk Kembang","type":"desa","parentId":"teluk-keramat","code":"6101060021"},"geometry":{"type":"Polygon","coordinates":[[[109.2633,1.5316],[109.255,1.5313],[109.2541,1.5143],[109.2393,1.4905],[109.2414,1.4844],[109.2655,1.4875],[109.2633,1.5316]]]}},{"type":"Feature","properties":{"id":"galing/teluk-pandan","name":"Teluk Pandan","type":"desa","parentId":"galing","code":"6101061010"},"geometry":{"type":"Polygon","coordinates":[[[109.3777,1.5971],[109.4017,1.6335],[109.41,1.7014],[109.4059,1.7225],[109.3858,1.7048],[109.3683,1.6809],[109.3724,1.6656],[109.3607,1.6492],[109.3652,1.6332],[109.3376,1.612],[109.3394,1.5644],[109.3589,1.5435],[109.3625,1.5429],[109.3651,1.5796],[109.3777,1.5971]]]}},{"type":"Feature","properties":{"id":"paloh/temajuk","name":"Temajuk","type":"desa","parentId":"paloh","code":"6101090007"},"geometry":{"type":"Polygon","coordinates":[[[109.5542,1.8563],[109.5522,1.8628],[109.5583,1.8721],[109.5496,1.8773],[109.538,1.925],[109.5562,1.9288],[109.5644,1.9366],[109.5649,1.9512],[109.5517,1.9562],[109.5533,1.9659],[109.5764,1.9778],[109.5976,1.9788],[109.6006,1.9739],[109.6273,1.9907],[109.6297,2.0142],[109.6382,2.0277],[109.6302,2.0365],[109.6303,2.0459],[109.6446,2.0813],[109.6255,2.065],[109.5885,1.9919],[109.4758,1.9822],[109.4523,1.9742],[109.4416,1.959],[109.4274,1.9501],[109.4313,1.9446],[109.4678,1.9326],[109.5542,1.8563]]]}},{"type":"Feature","properties":{"id":"galing/tempapan-hulu","name":"Tempapan Hulu","type":"desa","parentId":"galing","code":"6101061006"},"geometry":{"type":"Polygon","coordinates":[[[109.4058,1.7224],[109.4057,1.733],[109.3983,1.7346],[109.369,1.7155],[109.3532,1.6982],[109.3532,1.6814],[109.3328,1.6539],[109.3124,1.6469],[109.2731,1.6228],[109.2963,1.6048],[109.319,1.6002],[109.3383,1.6048],[109.3379,1.6122],[109.3652,1.6333],[109.3607,1.6492],[109.3724,1.6656],[109.3681,1.6805],[109.3743,1.6917],[109.4058,1.7224]]]}},{"type":"Feature","properties":{"id":"galing/tempapan-kuala","name":"Tempapan Kuala","type":"desa","parentId":"galing","code":"6101061004"},"geometry":{"type":"Polygon","coordinates":[[[109.3383,1.6048],[109.319,1.6002],[109.2963,1.6048],[109.2731,1.6228],[109.2353,1.6063],[109.2612,1.5768],[109.2699,1.5535],[109.2864,1.5393],[109.325,1.5313],[109.3396,1.5333],[109.3496,1.5269],[109.359,1.5446],[109.3394,1.5644],[109.3383,1.6048]]]}},{"type":"Feature","properties":{"id":"sebawi/tempatan","name":"Tempatan","type":"desa","parentId":"sebawi","code":"6101042005"},"geometry":{"type":"Polygon","coordinates":[[[109.2123,1.3207],[109.1961,1.3372],[109.1782,1.3119],[109.1955,1.3102],[109.2123,1.3207]]]}},{"type":"Feature","properties":{"id":"sajad/tengguli","name":"Tengguli","type":"desa","parentId":"sajad","code":"6101043002"},"geometry":{"type":"Polygon","coordinates":[[[109.3888,1.3381],[109.3977,1.3626],[109.3962,1.4074],[109.3925,1.4162],[109.3668,1.4153],[109.3619,1.3966],[109.3888,1.3381]]]}},{"type":"Feature","properties":{"id":"galing/tri-gaduh","name":"Tri Gaduh","type":"desa","parentId":"galing","code":"6101061008"},"geometry":{"type":"Polygon","coordinates":[[[109.2963,1.537],[109.2857,1.5395],[109.2953,1.5089],[109.3044,1.4972],[109.2984,1.4795],[109.3372,1.4808],[109.349,1.486],[109.3527,1.4974],[109.3496,1.5269],[109.3396,1.5333],[109.325,1.5313],[109.2963,1.537]]]}},{"type":"Feature","properties":{"id":"galing/tri-kembang","name":"Tri Kembang","type":"desa","parentId":"galing","code":"6101061007"},"geometry":{"type":"Polygon","coordinates":[[[109.359,1.4809],[109.3495,1.4868],[109.34,1.4812],[109.2983,1.4795],[109.299,1.4651],[109.328,1.4637],[109.3495,1.4729],[109.3659,1.4743],[109.359,1.4809]]]}},{"type":"Feature","properties":{"id":"teluk-keramat/tri-mandayan","name":"Tri Mandayan","type":"desa","parentId":"teluk-keramat","code":"6101060024"},"geometry":{"type":"Polygon","coordinates":[[[109.1977,1.5136],[109.1584,1.5063],[109.1304,1.4871],[109.0871,1.4798],[109.0936,1.4679],[109.1065,1.4625],[109.1035,1.4508],[109.1263,1.4604],[109.1522,1.4635],[109.2068,1.4942],[109.1977,1.5136]]]}},{"type":"Feature","properties":{"id":"sambas/tumuk-manggis","name":"Tumuk Manggis","type":"desa","parentId":"sambas","code":"6101040031"},"geometry":{"type":"Polygon","coordinates":[[[109.3119,1.3614],[109.3235,1.3754],[109.3071,1.4027],[109.2977,1.4021],[109.3065,1.3642],[109.3119,1.3614]]]}},{"type":"Feature","properties":{"id":"selakau/twi-mentibar","name":"Twi Mentibar","type":"desa","parentId":"selakau","code":"6101010008"},"geometry":{"type":"Polygon","coordinates":[[[109.0287,1.1051],[109.0095,1.1022],[109.0001,1.0892],[108.9798,1.0882],[108.9823,1.0558],[108.992,1.056],[108.9959,1.05],[108.995,1.0578],[109.0033,1.0592],[109.007,1.0672],[109.0064,1.0619],[109.0132,1.0564],[109.0125,1.0669],[109.0243,1.0796],[109.0287,1.1051]]]}}]}